{
"type": "FeatureCollection",
"name": "pune_blocks_web",
"crs": { "type": "name", "properties": { "name": "urn:ogc:def:crs:OGC::CRS84" } },
"features": [
{ "type": "Feature", "properties": { "OBJECTID": 2696, "block_name": "MAVAL", "block_lgd": 4519, "district": "Pune", "dist_lgd": 490, "state": "MAHARASHTRA", "state_lgd": 27, "shape_Area": 1277568837.3155575 }, "geometry": { "type": "Polygon", "coordinates": [ [ [ 73.4847574, 18.9806443 ], [ 73.4942819, 18.9729917 ], [ 73.4932629, 18.9687922 ], [ 73.5095909, 18.9677439 ], [ 73.512448, 18.9719342 ], [ 73.5105466, 18.9734472 ], [ 73.5151949, 18.9751268 ], [ 73.5172637, 18.9801367 ], [ 73.5281132, 18.9770513 ], [ 73.5316091, 18.96708 ], [ 73.5392101, 18.9616316 ], [ 73.5365761, 18.9581149 ], [ 73.5483993, 18.9464392 ], [ 73.5655082, 18.9368448 ], [ 73.5709891, 18.9292745 ], [ 73.5826948, 18.9233553 ], [ 73.5903397, 18.9062776 ], [ 73.6008484, 18.8944862 ], [ 73.6132478, 18.8890215 ], [ 73.6147737, 18.8818576 ], [ 73.6359386, 18.875887 ], [ 73.6445591, 18.8838163 ], [ 73.6483127, 18.8839356 ], [ 73.6411544, 18.8765435 ], [ 73.6412131, 18.8719209 ], [ 73.6470564, 18.8672387 ], [ 73.6463163, 18.861521 ], [ 73.6519897, 18.8525294 ], [ 73.6608672, 18.8511974 ], [ 73.6687783, 18.8561439 ], [ 73.662694, 18.844406 ], [ 73.6676229, 18.834767 ], [ 73.6739045, 18.8285972 ], [ 73.6894454, 18.8291049 ], [ 73.6973213, 18.8266456 ], [ 73.696601, 18.8226106 ], [ 73.7036009, 18.8258823 ], [ 73.7109651, 18.8242514 ], [ 73.7180036, 18.8124037 ], [ 73.7264796, 18.8083955 ], [ 73.7345823, 18.8089491 ], [ 73.742595, 18.8043671 ], [ 73.7298937, 18.7732584 ], [ 73.7374308, 18.7638234 ], [ 73.7403574, 18.7623907 ], [ 73.7459472, 18.7699489 ], [ 73.7545644, 18.7720715 ], [ 73.7676436, 18.7686779 ], [ 73.765844, 18.7624426 ], [ 73.7725761, 18.7594672 ], [ 73.7688476, 18.7519093 ], [ 73.7667006, 18.7366146 ], [ 73.7627728, 18.7407031 ], [ 73.7632988, 18.7381668 ], [ 73.758443, 18.7378692 ], [ 73.7393428, 18.7402925 ], [ 73.7373521, 18.7251109 ], [ 73.7349735, 18.7237943 ], [ 73.7326035, 18.7143525 ], [ 73.7249373, 18.714402 ], [ 73.7242489, 18.7066473 ], [ 73.7196932, 18.7058804 ], [ 73.7169568, 18.686543 ], [ 73.709953, 18.6880971 ], [ 73.711891, 18.6832902 ], [ 73.7102619, 18.6608284 ], [ 73.71601, 18.654305 ], [ 73.7130998, 18.64421 ], [ 73.6802638, 18.6395907 ], [ 73.6752578, 18.6419512 ], [ 73.6648281, 18.6318324 ], [ 73.6657487, 18.6197966 ], [ 73.6618466, 18.5950784 ], [ 73.6548812, 18.5945894 ], [ 73.6404156, 18.6021263 ], [ 73.6258125, 18.6024811 ], [ 73.6240998, 18.6098169 ], [ 73.6143758, 18.6135844 ], [ 73.6138656, 18.6163909 ], [ 73.5972783, 18.6173125 ], [ 73.5796476, 18.6234045 ], [ 73.5627939, 18.6231001 ], [ 73.5434823, 18.6341199 ], [ 73.5422549, 18.6242672 ], [ 73.5398087, 18.6223925 ], [ 73.5364686, 18.6294144 ], [ 73.5329678, 18.6315963 ], [ 73.5230021, 18.6309818 ], [ 73.5113423, 18.6238678 ], [ 73.5031214, 18.6148059 ], [ 73.5008383, 18.6073715 ], [ 73.5029349, 18.6069888 ], [ 73.5024434, 18.6048962 ], [ 73.4995802, 18.6051155 ], [ 73.4966064, 18.6011426 ], [ 73.4906458, 18.5888612 ], [ 73.4697316, 18.595237 ], [ 73.4629713, 18.5938496 ], [ 73.4604868, 18.5981815 ], [ 73.4469885, 18.6040322 ], [ 73.4461931, 18.6110145 ], [ 73.435561, 18.6187722 ], [ 73.4361008, 18.6316531 ], [ 73.4280809, 18.6368567 ], [ 73.426427, 18.6457758 ], [ 73.4225061, 18.6516034 ], [ 73.4211639, 18.6650524 ], [ 73.429014, 18.6675737 ], [ 73.4270087, 18.6679752 ], [ 73.4275962, 18.6737262 ], [ 73.3851617, 18.6772047 ], [ 73.3831293, 18.6846072 ], [ 73.3856412, 18.6946051 ], [ 73.3822425, 18.6933389 ], [ 73.3683334, 18.7027137 ], [ 73.3655157, 18.6994591 ], [ 73.3578744, 18.6996439 ], [ 73.3583169, 18.7134326 ], [ 73.3471242, 18.6930368 ], [ 73.3461405, 18.6966521 ], [ 73.341173, 18.6945407 ], [ 73.3385859, 18.6984318 ], [ 73.3331137, 18.6943085 ], [ 73.3295505, 18.7012568 ], [ 73.3456224, 18.7109257 ], [ 73.3426259, 18.7154487 ], [ 73.345029, 18.7182867 ], [ 73.3546179, 18.7213381 ], [ 73.3531931, 18.7326025 ], [ 73.358058, 18.7377899 ], [ 73.3554321, 18.7429304 ], [ 73.3572109, 18.7530436 ], [ 73.3509008, 18.7576338 ], [ 73.3623117, 18.7708941 ], [ 73.368885, 18.7948298 ], [ 73.3737477, 18.7882882 ], [ 73.378514, 18.7928994 ], [ 73.3815172, 18.8039647 ], [ 73.3784924, 18.8186449 ], [ 73.3839076, 18.8185952 ], [ 73.3829614, 18.8272023 ], [ 73.389046, 18.8534491 ], [ 73.4016161, 18.8421593 ], [ 73.4123415, 18.8568369 ], [ 73.4249414, 18.8611014 ], [ 73.4359644, 18.8802305 ], [ 73.4350179, 18.900968 ], [ 73.4400336, 18.9046086 ], [ 73.4366065, 18.9055165 ], [ 73.4316248, 18.9155118 ], [ 73.4362629, 18.9179982 ], [ 73.4415211, 18.9290002 ], [ 73.4479644, 18.924023 ], [ 73.4621015, 18.9272354 ], [ 73.4561026, 18.9455912 ], [ 73.4591173, 18.9640701 ], [ 73.4620946, 18.9671474 ], [ 73.4633653, 18.9656297 ], [ 73.466682, 18.9683256 ], [ 73.4794048, 18.9698734 ], [ 73.4804198, 18.9799097 ], [ 73.4847574, 18.9806443 ] ] ] } },
{ "type": "Feature", "properties": { "OBJECTID": 2700, "block_name": "MULSHI", "block_lgd": 4520, "district": "Pune", "dist_lgd": 490, "state": "MAHARASHTRA", "state_lgd": 27, "shape_Area": 1159837922.78704 }, "geometry": { "type": "MultiPolygon", "coordinates": [ [ [ [ 73.5937068, 18.392484 ], [ 73.5986783, 18.3891903 ], [ 73.6069947, 18.3909697 ], [ 73.6095564, 18.3878979 ], [ 73.5999397, 18.3809412 ], [ 73.5786387, 18.3757217 ], [ 73.5796763, 18.3904532 ], [ 73.5937068, 18.392484 ] ] ], [ [ [ 73.3906676, 18.6772625 ], [ 73.4094829, 18.6737791 ], [ 73.4275962, 18.6737262 ], [ 73.4270087, 18.6679752 ], [ 73.4278184, 18.6681585 ], [ 73.429014, 18.6675737 ], [ 73.4211639, 18.6650524 ], [ 73.4225061, 18.6516034 ], [ 73.426427, 18.6457758 ], [ 73.4280809, 18.6368567 ], [ 73.4361008, 18.6316531 ], [ 73.4355701, 18.6187546 ], [ 73.4461931, 18.6110145 ], [ 73.4469885, 18.6040322 ], [ 73.4604868, 18.5981815 ], [ 73.4629713, 18.5938496 ], [ 73.4697316, 18.595237 ], [ 73.4906458, 18.5888612 ], [ 73.4966064, 18.6011426 ], [ 73.4995802, 18.6051155 ], [ 73.5024434, 18.6048962 ], [ 73.5029349, 18.6069888 ], [ 73.5008383, 18.6073715 ], [ 73.5056064, 18.6187129 ], [ 73.5230021, 18.6309818 ], [ 73.5329678, 18.6315963 ], [ 73.5364686, 18.6294144 ], [ 73.5398087, 18.6223925 ], [ 73.5422549, 18.6242672 ], [ 73.5434823, 18.6341199 ], [ 73.5627939, 18.6231001 ], [ 73.5796476, 18.6234045 ], [ 73.5972783, 18.6173125 ], [ 73.6138656, 18.6163909 ], [ 73.6143758, 18.6135844 ], [ 73.6240998, 18.6098169 ], [ 73.6258125, 18.6024811 ], [ 73.64326, 18.6013697 ], [ 73.6548812, 18.5945894 ], [ 73.6618466, 18.5950784 ], [ 73.6657487, 18.6197966 ], [ 73.6648281, 18.6318324 ], [ 73.6752578, 18.6419512 ], [ 73.6802638, 18.6395907 ], [ 73.7130998, 18.64421 ], [ 73.7167287, 18.6549356 ], [ 73.7235396, 18.647456 ], [ 73.7344653, 18.6419124 ], [ 73.7380653, 18.6454052 ], [ 73.743187, 18.6411493 ], [ 73.753311, 18.6416693 ], [ 73.7542731, 18.631263 ], [ 73.7677778, 18.6245016 ], [ 73.7779281, 18.6279492 ], [ 73.7823124, 18.6173626 ], [ 73.7856635, 18.6168306 ], [ 73.7769956, 18.6036064 ], [ 73.7807147, 18.5938221 ], [ 73.7775723, 18.5875864 ], [ 73.7607262, 18.5880174 ], [ 73.7628264, 18.5702327 ], [ 73.7650599, 18.5693816 ], [ 73.7636772, 18.5539478 ], [ 73.7682523, 18.5448818 ], [ 73.7591148, 18.5398818 ], [ 73.7583773, 18.5375389 ], [ 73.7503157, 18.5329194 ], [ 73.7498691, 18.5312362 ], [ 73.7786639, 18.5274553 ], [ 73.7838152, 18.5242778 ], [ 73.7872988, 18.514536 ], [ 73.781665, 18.4999815 ], [ 73.7771575, 18.4960776 ], [ 73.7751522, 18.4895985 ], [ 73.7659622, 18.482917 ], [ 73.7616419, 18.483026 ], [ 73.7527547, 18.4886213 ], [ 73.7455671, 18.4837334 ], [ 73.7428659, 18.4882065 ], [ 73.7384909, 18.4876973 ], [ 73.737172, 18.4797318 ], [ 73.733799, 18.4789237 ], [ 73.7323163, 18.4731632 ], [ 73.7255312, 18.4719582 ], [ 73.7215695, 18.4671093 ], [ 73.6938592, 18.468888 ], [ 73.6785586, 18.4525507 ], [ 73.6562816, 18.4550147 ], [ 73.6477089, 18.448598 ], [ 73.6429231, 18.4495641 ], [ 73.6336291, 18.4423712 ], [ 73.6353636, 18.4355572 ], [ 73.644217, 18.4325108 ], [ 73.6455498, 18.4255445 ], [ 73.6518946, 18.4228964 ], [ 73.6600408, 18.4148879 ], [ 73.672461, 18.4253725 ], [ 73.6846489, 18.4294456 ], [ 73.6847934, 18.424989 ], [ 73.6809412, 18.4204721 ], [ 73.6756349, 18.4186777 ], [ 73.6729456, 18.4136035 ], [ 73.6666903, 18.4099303 ], [ 73.6699098, 18.4008987 ], [ 73.6672678, 18.3989173 ], [ 73.6451874, 18.4044635 ], [ 73.6425623, 18.4079611 ], [ 73.6254465, 18.4088521 ], [ 73.6241177, 18.391463 ], [ 73.6190572, 18.3878241 ], [ 73.6171415, 18.3944193 ], [ 73.6241632, 18.4109758 ], [ 73.6180064, 18.4153125 ], [ 73.6171463, 18.420165 ], [ 73.6097065, 18.4201411 ], [ 73.6079731, 18.4229835 ], [ 73.5951388, 18.4281684 ], [ 73.5871978, 18.4260006 ], [ 73.5805031, 18.420343 ], [ 73.5698934, 18.4198394 ], [ 73.5505436, 18.4111477 ], [ 73.5486567, 18.4135833 ], [ 73.5430336, 18.4118628 ], [ 73.5477925, 18.4097487 ], [ 73.5495774, 18.4011779 ], [ 73.5554885, 18.402053 ], [ 73.5627371, 18.3963466 ], [ 73.564436, 18.3852186 ], [ 73.5719644, 18.386322 ], [ 73.5741379, 18.3839578 ], [ 73.5755009, 18.3753362 ], [ 73.5583018, 18.3658142 ], [ 73.5372693, 18.3592021 ], [ 73.5318853, 18.354998 ], [ 73.528026, 18.3558248 ], [ 73.5153275, 18.3486049 ], [ 73.4897892, 18.3517587 ], [ 73.4861842, 18.3549593 ], [ 73.4754288, 18.3575043 ], [ 73.4712875, 18.3640639 ], [ 73.4647924, 18.3621433 ], [ 73.454873, 18.3536666 ], [ 73.4422176, 18.3562675 ], [ 73.4226224, 18.373066 ], [ 73.4244967, 18.3869296 ], [ 73.4204805, 18.403235 ], [ 73.4126855, 18.4055473 ], [ 73.4102733, 18.3988524 ], [ 73.4048157, 18.4008187 ], [ 73.4041955, 18.3975798 ], [ 73.3987675, 18.4006163 ], [ 73.3938244, 18.4445291 ], [ 73.3959852, 18.4478936 ], [ 73.4018692, 18.4458029 ], [ 73.4022854, 18.4627197 ], [ 73.4065146, 18.4643107 ], [ 73.4038045, 18.4766993 ], [ 73.4094166, 18.4768788 ], [ 73.4069942, 18.4889897 ], [ 73.4084068, 18.4995335 ], [ 73.4021921, 18.4994058 ], [ 73.3970463, 18.4897298 ], [ 73.3935851, 18.4928827 ], [ 73.3898644, 18.489536 ], [ 73.3899044, 18.4825485 ], [ 73.3797568, 18.4817683 ], [ 73.3824382, 18.4765883 ], [ 73.3770962, 18.4801649 ], [ 73.3769802, 18.468516 ], [ 73.3744456, 18.4678242 ], [ 73.3742983, 18.4645312 ], [ 73.3613043, 18.4722489 ], [ 73.3614351, 18.4861656 ], [ 73.3664957, 18.4822426 ], [ 73.3787768, 18.4820147 ], [ 73.3752403, 18.4940928 ], [ 73.3802852, 18.4942335 ], [ 73.3973264, 18.5054642 ], [ 73.3892273, 18.5022465 ], [ 73.3817791, 18.5058388 ], [ 73.3556742, 18.5337644 ], [ 73.3430289, 18.5325765 ], [ 73.3414402, 18.5412993 ], [ 73.3489468, 18.5458474 ], [ 73.346618, 18.5491561 ], [ 73.3568192, 18.5577289 ], [ 73.3482592, 18.5539216 ], [ 73.3383346, 18.5533826 ], [ 73.3357232, 18.5503268 ], [ 73.3235296, 18.5568763 ], [ 73.3228386, 18.5721321 ], [ 73.3320146, 18.5830679 ], [ 73.3284627, 18.5938051 ], [ 73.3308672, 18.5929335 ], [ 73.3322489, 18.5973914 ], [ 73.3346244, 18.5961473 ], [ 73.3345118, 18.6099583 ], [ 73.3385342, 18.6042209 ], [ 73.3417067, 18.6054169 ], [ 73.3434104, 18.6111737 ], [ 73.3467944, 18.6100863 ], [ 73.3603427, 18.6307852 ], [ 73.3682221, 18.6381317 ], [ 73.3686698, 18.642928 ], [ 73.3753968, 18.6452713 ], [ 73.3775809, 18.6518185 ], [ 73.3862806, 18.6552008 ], [ 73.3883182, 18.6658565 ], [ 73.3826555, 18.6753243 ], [ 73.3906676, 18.6772625 ] ] ] ] } },
{ "type": "Feature", "properties": { "OBJECTID": 2738, "block_name": "VELHE", "block_lgd": 4524, "district": "Pune", "dist_lgd": 490, "state": "MAHARASHTRA", "state_lgd": 27, "shape_Area": 598186954.26249456 }, "geometry": { "type": "Polygon", "coordinates": [ [ [ 73.5951388, 18.4281684 ], [ 73.6079731, 18.4229835 ], [ 73.6097065, 18.4201411 ], [ 73.6171463, 18.420165 ], [ 73.6180064, 18.4153125 ], [ 73.6241632, 18.4109758 ], [ 73.6171415, 18.3944193 ], [ 73.6183531, 18.3881795 ], [ 73.6241177, 18.391463 ], [ 73.6254465, 18.4088521 ], [ 73.6410355, 18.4075477 ], [ 73.6399027, 18.4002597 ], [ 73.6425818, 18.3933985 ], [ 73.6397531, 18.3883435 ], [ 73.6414582, 18.38717 ], [ 73.650487, 18.3885499 ], [ 73.6592428, 18.3837964 ], [ 73.6627912, 18.3900784 ], [ 73.6640617, 18.3728149 ], [ 73.6676554, 18.3636074 ], [ 73.6747943, 18.3650999 ], [ 73.6797163, 18.3697009 ], [ 73.6887738, 18.3813247 ], [ 73.6890845, 18.3883916 ], [ 73.6916573, 18.3873937 ], [ 73.693541, 18.3935361 ], [ 73.6955683, 18.3921825 ], [ 73.6931899, 18.3638211 ], [ 73.6971826, 18.3617108 ], [ 73.701219, 18.3636871 ], [ 73.7021045, 18.3673444 ], [ 73.7118212, 18.3673815 ], [ 73.7065034, 18.3564543 ], [ 73.7123209, 18.3509156 ], [ 73.711856, 18.3329463 ], [ 73.7150576, 18.3274803 ], [ 73.7209751, 18.3297403 ], [ 73.7372638, 18.329583 ], [ 73.7456495, 18.3286092 ], [ 73.7471879, 18.3253026 ], [ 73.7539922, 18.3233925 ], [ 73.7655512, 18.3305523 ], [ 73.774565, 18.3278564 ], [ 73.7834332, 18.3286879 ], [ 73.7926234, 18.3230597 ], [ 73.7985656, 18.3229222 ], [ 73.7997417, 18.3170804 ], [ 73.8100025, 18.3144666 ], [ 73.8074925, 18.2996715 ], [ 73.8031399, 18.2917298 ], [ 73.8082032, 18.276515 ], [ 73.8025701, 18.2597718 ], [ 73.816136, 18.254688 ], [ 73.8164482, 18.2458336 ], [ 73.8112516, 18.2421554 ], [ 73.8113174, 18.2368547 ], [ 73.7948224, 18.2370542 ], [ 73.7806649, 18.2439501 ], [ 73.7767074, 18.2431044 ], [ 73.7629167, 18.2483916 ], [ 73.7516454, 18.2471249 ], [ 73.7408672, 18.2425992 ], [ 73.7151829, 18.2412054 ], [ 73.7117827, 18.238849 ], [ 73.7087024, 18.24455 ], [ 73.699323, 18.2447012 ], [ 73.6969784, 18.2574177 ], [ 73.6903423, 18.2570374 ], [ 73.6887128, 18.2590864 ], [ 73.6859626, 18.2570008 ], [ 73.6821736, 18.2612401 ], [ 73.6794881, 18.2576013 ], [ 73.6753899, 18.2570377 ], [ 73.6769145, 18.2517823 ], [ 73.6720105, 18.2539536 ], [ 73.6746135, 18.2477957 ], [ 73.6713217, 18.2500211 ], [ 73.6701385, 18.2425353 ], [ 73.6374128, 18.2494652 ], [ 73.6301284, 18.2312232 ], [ 73.6305671, 18.2266171 ], [ 73.6212427, 18.2174608 ], [ 73.6196093, 18.2119822 ], [ 73.6246264, 18.2096027 ], [ 73.6249624, 18.2035578 ], [ 73.6213226, 18.1980161 ], [ 73.6229091, 18.1958309 ], [ 73.6213201, 18.1914157 ], [ 73.615995, 18.1854533 ], [ 73.615762, 18.1808513 ], [ 73.597392, 18.1888419 ], [ 73.5963958, 18.1794178 ], [ 73.5939176, 18.1768073 ], [ 73.5822536, 18.1781567 ], [ 73.5779371, 18.1836945 ], [ 73.5683315, 18.1870246 ], [ 73.5657856, 18.1934649 ], [ 73.5633092, 18.1926083 ], [ 73.5596138, 18.2145665 ], [ 73.5598711, 18.2087924 ], [ 73.5562189, 18.2032284 ], [ 73.5574128, 18.1982253 ], [ 73.5423742, 18.2060918 ], [ 73.5395891, 18.2029096 ], [ 73.537164, 18.1893906 ], [ 73.5205073, 18.1877206 ], [ 73.5244522, 18.1954789 ], [ 73.5311034, 18.2007826 ], [ 73.5341342, 18.2082559 ], [ 73.5308174, 18.210734 ], [ 73.524639, 18.209103 ], [ 73.522061, 18.2116057 ], [ 73.5346107, 18.2206635 ], [ 73.5310795, 18.2279931 ], [ 73.5353461, 18.2294277 ], [ 73.5404307, 18.2383021 ], [ 73.5465168, 18.2425379 ], [ 73.5447703, 18.248807 ], [ 73.531284, 18.2568438 ], [ 73.5233147, 18.2462343 ], [ 73.5162671, 18.2473389 ], [ 73.5153606, 18.2517806 ], [ 73.5079017, 18.2528481 ], [ 73.5084612, 18.2562518 ], [ 73.5052809, 18.2541843 ], [ 73.5007651, 18.2568447 ], [ 73.5052961, 18.2567103 ], [ 73.50333, 18.259468 ], [ 73.5075201, 18.2606761 ], [ 73.5148998, 18.2719936 ], [ 73.5046245, 18.2718483 ], [ 73.5034563, 18.2797029 ], [ 73.4989836, 18.2821968 ], [ 73.4932179, 18.2758615 ], [ 73.4915072, 18.2770913 ], [ 73.487086, 18.2743415 ], [ 73.4848402, 18.2764024 ], [ 73.4819501, 18.2712249 ], [ 73.477659, 18.2738267 ], [ 73.4736105, 18.2815606 ], [ 73.4757815, 18.2859583 ], [ 73.4730364, 18.2904308 ], [ 73.4758273, 18.299998 ], [ 73.4696077, 18.3015248 ], [ 73.4543, 18.2973125 ], [ 73.445951, 18.3043087 ], [ 73.4391771, 18.3049574 ], [ 73.4300738, 18.303155 ], [ 73.4253257, 18.2992393 ], [ 73.4259215, 18.3048237 ], [ 73.4228286, 18.3056129 ], [ 73.4203832, 18.311337 ], [ 73.4263617, 18.3193324 ], [ 73.420445, 18.3196686 ], [ 73.4219107, 18.3284281 ], [ 73.4273106, 18.3302265 ], [ 73.4331452, 18.3500752 ], [ 73.4406168, 18.3579314 ], [ 73.4538537, 18.3534538 ], [ 73.4647924, 18.3621433 ], [ 73.4712875, 18.3640639 ], [ 73.4754288, 18.3575043 ], [ 73.4861842, 18.3549593 ], [ 73.4897892, 18.3517587 ], [ 73.5153275, 18.3486049 ], [ 73.528026, 18.3558248 ], [ 73.5318853, 18.354998 ], [ 73.5372693, 18.3592021 ], [ 73.5720704, 18.3724025 ], [ 73.5755009, 18.3753362 ], [ 73.5740004, 18.3842618 ], [ 73.5719644, 18.386322 ], [ 73.564436, 18.3852186 ], [ 73.5627371, 18.3963466 ], [ 73.5554885, 18.402053 ], [ 73.5495774, 18.4011779 ], [ 73.5477925, 18.4097487 ], [ 73.5430336, 18.4118628 ], [ 73.5486567, 18.4135833 ], [ 73.5505436, 18.4111477 ], [ 73.5698934, 18.4198394 ], [ 73.5805031, 18.420343 ], [ 73.5871978, 18.4260006 ], [ 73.5951388, 18.4281684 ] ], [ [ 73.5917522, 18.3924389 ], [ 73.5796763, 18.3904532 ], [ 73.5786387, 18.3757217 ], [ 73.5999397, 18.3809412 ], [ 73.6095564, 18.3878979 ], [ 73.6069947, 18.3909697 ], [ 73.5986783, 18.3891903 ], [ 73.5917522, 18.3924389 ] ], [ [ 73.6345334, 18.3865898 ], [ 73.631971, 18.3759703 ], [ 73.6290442, 18.3750884 ], [ 73.6279507, 18.3662756 ], [ 73.6315445, 18.3567721 ], [ 73.6327496, 18.3403812 ], [ 73.6336483, 18.3380093 ], [ 73.6437836, 18.3358067 ], [ 73.654423, 18.340488 ], [ 73.6533129, 18.3452666 ], [ 73.6421456, 18.3685896 ], [ 73.6422705, 18.3761184 ], [ 73.637432, 18.3781462 ], [ 73.6345334, 18.3865898 ] ] ] } },
{ "type": "Feature", "properties": { "OBJECTID": 2653, "block_name": "BHOR", "block_lgd": 4513, "district": "Pune", "dist_lgd": 490, "state": "MAHARASHTRA", "state_lgd": 27, "shape_Area": 1010011517.2775892 }, "geometry": { "type": "Polygon", "coordinates": [ [ [ 73.8506308, 18.4006061 ], [ 73.8657787, 18.3984759 ], [ 73.8718094, 18.4002561 ], [ 73.8727607, 18.3970673 ], [ 73.8682783, 18.3927666 ], [ 73.8691775, 18.3895382 ], [ 73.8591603, 18.3845448 ], [ 73.8585699, 18.3704927 ], [ 73.8620574, 18.3740628 ], [ 73.8743159, 18.3693909 ], [ 73.8766553, 18.3664866 ], [ 73.8802415, 18.3679147 ], [ 73.8807434, 18.3571165 ], [ 73.8832917, 18.3545588 ], [ 73.8820018, 18.3447151 ], [ 73.889126, 18.3311536 ], [ 73.8995243, 18.3293438 ], [ 73.9019544, 18.3253184 ], [ 73.9098539, 18.3226706 ], [ 73.9148176, 18.3258377 ], [ 73.9201864, 18.3230127 ], [ 73.9224359, 18.3241414 ], [ 73.9242294, 18.3166782 ], [ 73.9324542, 18.3123355 ], [ 73.9375603, 18.3051091 ], [ 73.915181, 18.2701222 ], [ 73.9130212, 18.261888 ], [ 73.9322002, 18.2511869 ], [ 73.9315941, 18.2443334 ], [ 73.9268464, 18.2376484 ], [ 73.9282795, 18.2347961 ], [ 73.9412125, 18.2340021 ], [ 73.9516377, 18.2479936 ], [ 73.9638061, 18.2528397 ], [ 73.9656232, 18.2435711 ], [ 73.9800457, 18.2335758 ], [ 73.9796236, 18.2294057 ], [ 73.9962375, 18.2198845 ], [ 73.9969555, 18.2167811 ], [ 74.0125874, 18.2111351 ], [ 74.0159067, 18.2056525 ], [ 74.0203968, 18.2056088 ], [ 74.028266, 18.2003474 ], [ 74.0302462, 18.1931504 ], [ 74.0435406, 18.1823211 ], [ 74.045076, 18.1754639 ], [ 74.0508183, 18.1691017 ], [ 74.0448589, 18.1624387 ], [ 74.0425607, 18.1517393 ], [ 74.0471309, 18.1471305 ], [ 74.047241, 18.1405784 ], [ 74.0433377, 18.135521 ], [ 74.0281307, 18.1322777 ], [ 74.0132407, 18.1443109 ], [ 74.011624, 18.148321 ], [ 74.0089319, 18.1485786 ], [ 74.0057787, 18.1603979 ], [ 74.0011686, 18.160191 ], [ 73.9932135, 18.1546823 ], [ 73.9951224, 18.1525655 ], [ 73.9934715, 18.1509221 ], [ 73.98134, 18.1514908 ], [ 73.980998, 18.1543557 ], [ 73.9618234, 18.1616791 ], [ 73.9612706, 18.1655487 ], [ 73.9451891, 18.1790526 ], [ 73.9413233, 18.1783717 ], [ 73.9384566, 18.1731874 ], [ 73.9349824, 18.1720532 ], [ 73.9221027, 18.1717391 ], [ 73.908319, 18.1632433 ], [ 73.9067414, 18.1601596 ], [ 73.9019737, 18.1595849 ], [ 73.8966415, 18.180044 ], [ 73.8936637, 18.1826658 ], [ 73.8828894, 18.1727118 ], [ 73.8732093, 18.1746677 ], [ 73.874913, 18.173201 ], [ 73.8728343, 18.166369 ], [ 73.88864, 18.1541917 ], [ 73.8959971, 18.1394945 ], [ 73.9016845, 18.1369431 ], [ 73.9015451, 18.1288004 ], [ 73.8972733, 18.1253662 ], [ 73.8917319, 18.1254701 ], [ 73.8877199, 18.1162584 ], [ 73.8773237, 18.1154469 ], [ 73.8607685, 18.1195935 ], [ 73.8735128, 18.0932255 ], [ 73.8801557, 18.0865519 ], [ 73.8692696, 18.0754882 ], [ 73.8679953, 18.0703503 ], [ 73.8713982, 18.0668315 ], [ 73.8701791, 18.0479875 ], [ 73.8643467, 18.0467619 ], [ 73.865586, 18.0432101 ], [ 73.8586864, 18.0311529 ], [ 73.8543038, 18.0303322 ], [ 73.8460417, 18.0398341 ], [ 73.8405463, 18.0310031 ], [ 73.8357164, 18.0319975 ], [ 73.8289035, 18.0294181 ], [ 73.824224, 18.0301948 ], [ 73.823428, 18.0343171 ], [ 73.8135504, 18.0351108 ], [ 73.813361, 18.037987 ], [ 73.8086274, 18.031628 ], [ 73.7926473, 18.0205715 ], [ 73.7824013, 18.0263005 ], [ 73.7773975, 18.0249421 ], [ 73.7753325, 18.0278634 ], [ 73.765985, 18.0234421 ], [ 73.7556737, 18.0281468 ], [ 73.7536484, 18.0324363 ], [ 73.7561891, 18.0386155 ], [ 73.7375755, 18.0369794 ], [ 73.7202282, 18.0427801 ], [ 73.7022908, 18.0443451 ], [ 73.6662925, 18.0247442 ], [ 73.6632019, 18.0250751 ], [ 73.6580939, 18.029317 ], [ 73.6595459, 18.032745 ], [ 73.6510382, 18.0367309 ], [ 73.6448977, 18.0442633 ], [ 73.6301421, 18.0451024 ], [ 73.6299945, 18.0491533 ], [ 73.6137544, 18.0586036 ], [ 73.6147126, 18.0686838 ], [ 73.6209077, 18.0771192 ], [ 73.6067729, 18.080335 ], [ 73.6055241, 18.0827381 ], [ 73.6026982, 18.0810018 ], [ 73.6006026, 18.0845279 ], [ 73.6066442, 18.0888802 ], [ 73.609393, 18.0967844 ], [ 73.5951108, 18.1082533 ], [ 73.5958866, 18.1119914 ], [ 73.6008082, 18.1149653 ], [ 73.6011319, 18.1215947 ], [ 73.6040188, 18.1220636 ], [ 73.6052335, 18.1250834 ], [ 73.6078566, 18.1295314 ], [ 73.6094263, 18.1338274 ], [ 73.6064329, 18.1388763 ], [ 73.608239, 18.1412486 ], [ 73.6100123, 18.1334553 ], [ 73.6066718, 18.1264003 ], [ 73.6074942, 18.1225298 ], [ 73.6123823, 18.1245346 ], [ 73.6267924, 18.1230255 ], [ 73.6192361, 18.1267004 ], [ 73.6280554, 18.1336842 ], [ 73.6284524, 18.1412398 ], [ 73.6337154, 18.1438641 ], [ 73.6336987, 18.1469083 ], [ 73.6366316, 18.1468626 ], [ 73.6411704, 18.1407139 ], [ 73.65082, 18.1521155 ], [ 73.649549, 18.1568803 ], [ 73.6541714, 18.1584235 ], [ 73.6561074, 18.1556748 ], [ 73.6616355, 18.1546024 ], [ 73.6610509, 18.15162 ], [ 73.6662754, 18.1560796 ], [ 73.6660681, 18.1602295 ], [ 73.66216, 18.1611011 ], [ 73.6626267, 18.1659228 ], [ 73.6562719, 18.1713569 ], [ 73.6340245, 18.175988 ], [ 73.6304083, 18.1744993 ], [ 73.615762, 18.1808513 ], [ 73.615995, 18.1854533 ], [ 73.6213201, 18.1914157 ], [ 73.6229091, 18.1958309 ], [ 73.6213226, 18.1980161 ], [ 73.6249624, 18.2035578 ], [ 73.6246264, 18.2096027 ], [ 73.6196093, 18.2119822 ], [ 73.6212427, 18.2174608 ], [ 73.6305671, 18.2266171 ], [ 73.6301284, 18.2312232 ], [ 73.6329618, 18.234629 ], [ 73.6357123, 18.2467027 ], [ 73.6374128, 18.2494652 ], [ 73.6701385, 18.2425353 ], [ 73.6713217, 18.2500211 ], [ 73.6746135, 18.2477957 ], [ 73.6720105, 18.2539536 ], [ 73.6769145, 18.2517823 ], [ 73.6753899, 18.2570377 ], [ 73.6794881, 18.2576013 ], [ 73.6821736, 18.2612401 ], [ 73.6859626, 18.2570008 ], [ 73.6887128, 18.2590864 ], [ 73.6903423, 18.2570374 ], [ 73.6969784, 18.2574177 ], [ 73.699323, 18.2447012 ], [ 73.7087024, 18.24455 ], [ 73.7117827, 18.238849 ], [ 73.7151829, 18.2412054 ], [ 73.7408672, 18.2425992 ], [ 73.7516454, 18.2471249 ], [ 73.7629167, 18.2483916 ], [ 73.7767074, 18.2431044 ], [ 73.7806649, 18.2439501 ], [ 73.7948224, 18.2370542 ], [ 73.8113174, 18.2368547 ], [ 73.8112516, 18.2421554 ], [ 73.8164482, 18.2458336 ], [ 73.816136, 18.254688 ], [ 73.8025701, 18.2597718 ], [ 73.8082032, 18.276515 ], [ 73.8031399, 18.2917298 ], [ 73.8074925, 18.2996715 ], [ 73.8100025, 18.3144666 ], [ 73.7987499, 18.3176286 ], [ 73.7985656, 18.3229222 ], [ 73.7942342, 18.3235907 ], [ 73.8116461, 18.3329491 ], [ 73.8125475, 18.3439224 ], [ 73.8105613, 18.348171 ], [ 73.8113556, 18.3501096 ], [ 73.8181296, 18.3497322 ], [ 73.820636, 18.3573253 ], [ 73.8297316, 18.3497685 ], [ 73.8316404, 18.3376413 ], [ 73.8389559, 18.3335122 ], [ 73.8455341, 18.3190596 ], [ 73.8482057, 18.3194689 ], [ 73.8483436, 18.323286 ], [ 73.8624581, 18.3351004 ], [ 73.8590157, 18.3415226 ], [ 73.8529158, 18.3431161 ], [ 73.8601278, 18.3514661 ], [ 73.8659253, 18.3540036 ], [ 73.8457782, 18.3608095 ], [ 73.8458253, 18.365623 ], [ 73.8302655, 18.3795997 ], [ 73.8310852, 18.3922718 ], [ 73.8506308, 18.4006061 ] ], [ [ 73.8665417, 18.1757261 ], [ 73.8472704, 18.1754391 ], [ 73.847041, 18.1688006 ], [ 73.8583779, 18.1626288 ], [ 73.8631757, 18.165611 ], [ 73.8665417, 18.1757261 ] ] ] } },
{ "type": "Feature", "properties": { "OBJECTID": 2968, "block_name": "PUNE CITY", "block_lgd": 4521, "district": "Pune", "dist_lgd": 490, "state": "MAHARASHTRA", "state_lgd": 27, "shape_Area": 363533782.62014896 }, "geometry": { "type": "Polygon", "coordinates": [ [ [ 73.9057909, 18.616644 ], [ 73.9258669, 18.6212577 ], [ 73.9636841, 18.6212378 ], [ 73.9676255, 18.6200643 ], [ 73.9647129, 18.6172277 ], [ 73.9666906, 18.6073147 ], [ 73.9704219, 18.603407 ], [ 73.9780347, 18.6025001 ], [ 73.9949025, 18.6076751 ], [ 74.0043924, 18.6137446 ], [ 74.0190616, 18.5943109 ], [ 74.0049805, 18.5767528 ], [ 74.0022846, 18.5670508 ], [ 73.9942333, 18.5672837 ], [ 73.9846422, 18.5726573 ], [ 73.9788011, 18.571506 ], [ 73.9746037, 18.5582734 ], [ 73.9761886, 18.5492927 ], [ 73.973028, 18.5408691 ], [ 73.9614638, 18.5456636 ], [ 73.9560383, 18.5342359 ], [ 73.9539523, 18.5231505 ], [ 73.9508925, 18.5236186 ], [ 73.9513957, 18.5043365 ], [ 73.958767, 18.5041559 ], [ 73.9568052, 18.4934856 ], [ 73.9497128, 18.493703 ], [ 73.9398911, 18.4683253 ], [ 73.9305372, 18.4650215 ], [ 73.925572, 18.4582293 ], [ 73.9183697, 18.4627441 ], [ 73.9004986, 18.4650434 ], [ 73.8978165, 18.4464658 ], [ 73.9003567, 18.4409184 ], [ 73.895204, 18.4394725 ], [ 73.893613, 18.4435267 ], [ 73.8901695, 18.4451415 ], [ 73.8898608, 18.4414115 ], [ 73.8840976, 18.4400437 ], [ 73.8847078, 18.4416316 ], [ 73.8813603, 18.4374863 ], [ 73.8798854, 18.4299285 ], [ 73.8765006, 18.43938 ], [ 73.8733735, 18.4375204 ], [ 73.8701798, 18.4387596 ], [ 73.8653049, 18.4317802 ], [ 73.8615156, 18.4359999 ], [ 73.8594875, 18.4331572 ], [ 73.8555505, 18.4335462 ], [ 73.8524551, 18.4420481 ], [ 73.8491134, 18.4442798 ], [ 73.8346708, 18.4454728 ], [ 73.8341867, 18.4504661 ], [ 73.8303744, 18.4512948 ], [ 73.826029, 18.4614454 ], [ 73.8018486, 18.4570746 ], [ 73.7959357, 18.4755559 ], [ 73.7928882, 18.4788592 ], [ 73.7777807, 18.4805781 ], [ 73.7741127, 18.4888004 ], [ 73.7771575, 18.4960776 ], [ 73.781665, 18.4999815 ], [ 73.7872988, 18.514536 ], [ 73.7838152, 18.5242778 ], [ 73.7786639, 18.5274553 ], [ 73.7498691, 18.5312362 ], [ 73.7682523, 18.5448818 ], [ 73.7636772, 18.5539478 ], [ 73.7650599, 18.5693816 ], [ 73.7628264, 18.5702327 ], [ 73.7607262, 18.5880174 ], [ 73.777631, 18.5877794 ], [ 73.7813079, 18.5787154 ], [ 73.7898887, 18.5723378 ], [ 73.7890312, 18.5642473 ], [ 73.7937473, 18.5644322 ], [ 73.8013773, 18.5695847 ], [ 73.827759, 18.5681157 ], [ 73.8356132, 18.5754645 ], [ 73.8434629, 18.5726028 ], [ 73.8506591, 18.5744468 ], [ 73.8542402, 18.5815107 ], [ 73.8606437, 18.5835724 ], [ 73.8595389, 18.5874328 ], [ 73.8625997, 18.5877228 ], [ 73.8687798, 18.6016732 ], [ 73.8848995, 18.5990727 ], [ 73.893315, 18.6219479 ], [ 73.9057909, 18.616644 ] ] ] } },
{ "type": "Feature", "properties": { "OBJECTID": 2969, "block_name": "HAVELI", "block_lgd": 4515, "district": "Pune", "dist_lgd": 490, "state": "MAHARASHTRA", "state_lgd": 27, "shape_Area": 1237231324.1382318 }, "geometry": { "type": "MultiPolygon", "coordinates": [ [ [ [ 73.637432, 18.3781462 ], [ 73.6422705, 18.3761184 ], [ 73.6421456, 18.3685896 ], [ 73.6488681, 18.3576385 ], [ 73.654423, 18.340488 ], [ 73.6437836, 18.3358067 ], [ 73.6336483, 18.3380093 ], [ 73.6315445, 18.3567721 ], [ 73.6279507, 18.3662756 ], [ 73.6290442, 18.3750884 ], [ 73.631971, 18.3759703 ], [ 73.6345334, 18.3865898 ], [ 73.637432, 18.3781462 ] ] ], [ [ [ 74.0070777, 18.6633374 ], [ 74.0193127, 18.6610327 ], [ 74.0356445, 18.6615835 ], [ 74.0467555, 18.6583547 ], [ 74.0544449, 18.6455113 ], [ 74.0695033, 18.6338336 ], [ 74.0752236, 18.6248471 ], [ 74.0802906, 18.6249086 ], [ 74.0898049, 18.6325427 ], [ 74.1012288, 18.6304679 ], [ 74.1476731, 18.601249 ], [ 74.1499964, 18.6014207 ], [ 74.1596475, 18.6140555 ], [ 74.1717538, 18.6213537 ], [ 74.1781029, 18.6173241 ], [ 74.1966119, 18.6159542 ], [ 74.1926342, 18.5939574 ], [ 74.1797359, 18.5833311 ], [ 74.1683995, 18.5796412 ], [ 74.1704074, 18.5370699 ], [ 74.1831963, 18.5294464 ], [ 74.1787166, 18.5172145 ], [ 74.1802697, 18.5114728 ], [ 74.1754946, 18.4930711 ], [ 74.1557122, 18.4951752 ], [ 74.1550145, 18.484543 ], [ 74.1503303, 18.4702131 ], [ 74.141845, 18.4701007 ], [ 74.1434323, 18.4192033 ], [ 74.1328497, 18.4203011 ], [ 74.1188755, 18.4141303 ], [ 74.0954892, 18.4140445 ], [ 74.0882015, 18.4193179 ], [ 74.0719836, 18.414885 ], [ 74.0690848, 18.4108626 ], [ 74.0585668, 18.4134264 ], [ 74.0511064, 18.4121456 ], [ 74.0383682, 18.4175428 ], [ 74.0369313, 18.4237756 ], [ 74.0289922, 18.4242336 ], [ 74.0185979, 18.4303265 ], [ 74.0095216, 18.4259717 ], [ 74.0016865, 18.4120209 ], [ 73.9860366, 18.4103021 ], [ 73.9751891, 18.4060271 ], [ 73.9656104, 18.4067426 ], [ 73.9579647, 18.4100147 ], [ 73.954396, 18.4143658 ], [ 73.9483692, 18.4157502 ], [ 73.9391896, 18.4129507 ], [ 73.9239744, 18.4126233 ], [ 73.9192765, 18.4075209 ], [ 73.9140177, 18.4067483 ], [ 73.8929552, 18.410652 ], [ 73.8852689, 18.40076 ], [ 73.8891168, 18.3970509 ], [ 73.8858081, 18.3847009 ], [ 73.8894172, 18.3787682 ], [ 73.8858849, 18.3763285 ], [ 73.884076, 18.3691891 ], [ 73.8766553, 18.3664866 ], [ 73.8636372, 18.3738699 ], [ 73.8585699, 18.3704927 ], [ 73.8591603, 18.3845448 ], [ 73.8691775, 18.3895382 ], [ 73.8682783, 18.3927666 ], [ 73.8727607, 18.3970673 ], [ 73.8718094, 18.4002561 ], [ 73.8657787, 18.3984759 ], [ 73.8506308, 18.4006061 ], [ 73.8310852, 18.3922718 ], [ 73.8297343, 18.3895198 ], [ 73.8302655, 18.3795997 ], [ 73.8458253, 18.365623 ], [ 73.8457782, 18.3608095 ], [ 73.8659253, 18.3540036 ], [ 73.8601278, 18.3514661 ], [ 73.8529158, 18.3431161 ], [ 73.8590157, 18.3415226 ], [ 73.8632425, 18.3362614 ], [ 73.8483436, 18.323286 ], [ 73.8490056, 18.3206478 ], [ 73.8462001, 18.31897 ], [ 73.8415536, 18.3247804 ], [ 73.8389559, 18.3335122 ], [ 73.8316404, 18.3376413 ], [ 73.8297735, 18.3496865 ], [ 73.8221535, 18.3574252 ], [ 73.8181296, 18.3497322 ], [ 73.8113556, 18.3501096 ], [ 73.8116461, 18.3329491 ], [ 73.7926234, 18.3230597 ], [ 73.7834332, 18.3286879 ], [ 73.774565, 18.3278564 ], [ 73.7671578, 18.3305656 ], [ 73.7539922, 18.3233925 ], [ 73.7471879, 18.3253026 ], [ 73.7456495, 18.3286092 ], [ 73.7372638, 18.329583 ], [ 73.7209751, 18.3297403 ], [ 73.7150576, 18.3274803 ], [ 73.711856, 18.3329463 ], [ 73.7123209, 18.3509156 ], [ 73.7065034, 18.3564543 ], [ 73.7118212, 18.3673815 ], [ 73.7021045, 18.3673444 ], [ 73.701219, 18.3636871 ], [ 73.6971826, 18.3617108 ], [ 73.6931899, 18.3638211 ], [ 73.6955683, 18.3921825 ], [ 73.693541, 18.3935361 ], [ 73.6916573, 18.3873937 ], [ 73.6890845, 18.3883916 ], [ 73.6898546, 18.3849561 ], [ 73.6859457, 18.3764545 ], [ 73.6702212, 18.3629861 ], [ 73.6697843, 18.3648338 ], [ 73.6669136, 18.3643195 ], [ 73.6649357, 18.3692425 ], [ 73.6627912, 18.3900784 ], [ 73.6592428, 18.3837964 ], [ 73.650487, 18.3885499 ], [ 73.6433792, 18.3866651 ], [ 73.6397531, 18.3883435 ], [ 73.6425818, 18.3933985 ], [ 73.6399027, 18.4002597 ], [ 73.6410355, 18.4075477 ], [ 73.6451874, 18.4044635 ], [ 73.6672678, 18.3989173 ], [ 73.6699098, 18.4008987 ], [ 73.6666903, 18.4099303 ], [ 73.6729456, 18.4136035 ], [ 73.6756349, 18.4186777 ], [ 73.6809412, 18.4204721 ], [ 73.6850926, 18.4282234 ], [ 73.672461, 18.4253725 ], [ 73.6600408, 18.4148879 ], [ 73.6518946, 18.4228964 ], [ 73.6455498, 18.4255445 ], [ 73.644217, 18.4325108 ], [ 73.6353636, 18.4355572 ], [ 73.6336291, 18.4423712 ], [ 73.6429231, 18.4495641 ], [ 73.6477089, 18.448598 ], [ 73.6562816, 18.4550147 ], [ 73.6785586, 18.4525507 ], [ 73.6938592, 18.468888 ], [ 73.7215695, 18.4671093 ], [ 73.7255312, 18.4719582 ], [ 73.7323163, 18.4731632 ], [ 73.733799, 18.4789237 ], [ 73.737172, 18.4797318 ], [ 73.7384909, 18.4876973 ], [ 73.7428659, 18.4882065 ], [ 73.7455671, 18.4837334 ], [ 73.7527547, 18.4886213 ], [ 73.7645961, 18.4828315 ], [ 73.7753065, 18.4885714 ], [ 73.7777807, 18.4805781 ], [ 73.7928882, 18.4788592 ], [ 73.7959357, 18.4755559 ], [ 73.8018486, 18.4570746 ], [ 73.826029, 18.4614454 ], [ 73.8303744, 18.4512948 ], [ 73.8341867, 18.4504661 ], [ 73.8346708, 18.4454728 ], [ 73.8491134, 18.4442798 ], [ 73.8524551, 18.4420481 ], [ 73.8555505, 18.4335462 ], [ 73.8594875, 18.4331572 ], [ 73.8615156, 18.4359999 ], [ 73.8653049, 18.4317802 ], [ 73.8701798, 18.4387596 ], [ 73.8733735, 18.4375204 ], [ 73.8765006, 18.43938 ], [ 73.8798854, 18.4299285 ], [ 73.8813603, 18.4374863 ], [ 73.8847078, 18.4416316 ], [ 73.8840976, 18.4400437 ], [ 73.8898608, 18.4414115 ], [ 73.8901695, 18.4451415 ], [ 73.893613, 18.4435267 ], [ 73.895204, 18.4394725 ], [ 73.9003567, 18.4409184 ], [ 73.8978165, 18.4464658 ], [ 73.9004986, 18.4650434 ], [ 73.9183697, 18.4627441 ], [ 73.9245073, 18.457739 ], [ 73.9305372, 18.4650215 ], [ 73.9375072, 18.4660812 ], [ 73.9422166, 18.4721062 ], [ 73.9497128, 18.493703 ], [ 73.9568052, 18.4934856 ], [ 73.958767, 18.5041559 ], [ 73.9513957, 18.5043365 ], [ 73.9508925, 18.5236186 ], [ 73.9539523, 18.5231505 ], [ 73.9560383, 18.5342359 ], [ 73.9614638, 18.5456636 ], [ 73.973028, 18.5408691 ], [ 73.9761886, 18.5492927 ], [ 73.9746037, 18.5582734 ], [ 73.9788011, 18.571506 ], [ 73.9846422, 18.5726573 ], [ 73.9942333, 18.5672837 ], [ 74.0022846, 18.5670508 ], [ 74.0049805, 18.5767528 ], [ 74.0190616, 18.5943109 ], [ 74.0043924, 18.6137446 ], [ 73.9949025, 18.6076751 ], [ 73.9780347, 18.6025001 ], [ 73.9704219, 18.603407 ], [ 73.9666906, 18.6073147 ], [ 73.9647129, 18.6172277 ], [ 73.9775739, 18.6245565 ], [ 73.9827688, 18.6326423 ], [ 73.9844904, 18.6430673 ], [ 73.9778804, 18.6537518 ], [ 73.9827582, 18.6595661 ], [ 73.990413, 18.6635922 ], [ 73.984211, 18.6728591 ], [ 73.983889, 18.6789948 ], [ 73.9923711, 18.6785128 ], [ 73.9968818, 18.6707539 ], [ 74.0070777, 18.6633374 ] ] ], [ [ [ 73.7730795, 18.7376539 ], [ 73.7839521, 18.7286345 ], [ 73.7881573, 18.7163371 ], [ 73.7992651, 18.7043506 ], [ 73.8031776, 18.7024481 ], [ 73.808992, 18.7046325 ], [ 73.8126973, 18.7033017 ], [ 73.8166021, 18.6868866 ], [ 73.8310057, 18.6904982 ], [ 73.8416038, 18.687558 ], [ 73.8499449, 18.6890037 ], [ 73.8610851, 18.6803102 ], [ 73.8669048, 18.6864718 ], [ 73.874892, 18.6863278 ], [ 73.8842161, 18.6780649 ], [ 73.89572, 18.6771264 ], [ 73.9015673, 18.6644547 ], [ 73.9214479, 18.6515731 ], [ 73.925417, 18.6516877 ], [ 73.9350067, 18.6614219 ], [ 73.9390633, 18.6613532 ], [ 73.9415647, 18.6577349 ], [ 73.9418864, 18.6458584 ], [ 73.9676503, 18.6326446 ], [ 73.9629716, 18.6247378 ], [ 73.9636841, 18.6212378 ], [ 73.9258669, 18.6212577 ], [ 73.9058167, 18.6166411 ], [ 73.893315, 18.6219479 ], [ 73.8848995, 18.5990727 ], [ 73.8687798, 18.6016732 ], [ 73.8625997, 18.5877228 ], [ 73.8595389, 18.5874328 ], [ 73.8606437, 18.5835724 ], [ 73.8542402, 18.5815107 ], [ 73.8506591, 18.5744468 ], [ 73.8471845, 18.5724486 ], [ 73.8365237, 18.5757012 ], [ 73.827759, 18.5681157 ], [ 73.8013773, 18.5695847 ], [ 73.7937473, 18.5644322 ], [ 73.7890312, 18.5642473 ], [ 73.7898887, 18.5723378 ], [ 73.7813079, 18.5787154 ], [ 73.777631, 18.5877794 ], [ 73.7807147, 18.5938221 ], [ 73.7769956, 18.6036064 ], [ 73.7856635, 18.6168306 ], [ 73.7823124, 18.6173626 ], [ 73.7779281, 18.6279492 ], [ 73.7684018, 18.6244629 ], [ 73.7608261, 18.6275113 ], [ 73.7536329, 18.6319097 ], [ 73.753311, 18.6416693 ], [ 73.743187, 18.6411493 ], [ 73.7380653, 18.6454052 ], [ 73.7344653, 18.6419124 ], [ 73.7235396, 18.647456 ], [ 73.7202154, 18.6532041 ], [ 73.7138565, 18.6557543 ], [ 73.7102619, 18.6608284 ], [ 73.711891, 18.6832902 ], [ 73.709953, 18.6880971 ], [ 73.7169568, 18.686543 ], [ 73.7196932, 18.7058804 ], [ 73.7299511, 18.7072138 ], [ 73.7383829, 18.7018558 ], [ 73.7433869, 18.702151 ], [ 73.7446697, 18.7100369 ], [ 73.7508198, 18.7201604 ], [ 73.7544202, 18.7214331 ], [ 73.7593873, 18.7179582 ], [ 73.7639229, 18.7189612 ], [ 73.7669269, 18.7363611 ], [ 73.7730795, 18.7376539 ] ] ] ] } },
{ "type": "Feature", "properties": { "OBJECTID": 2722, "block_name": "PURANDAR", "block_lgd": 4522, "district": "Pune", "dist_lgd": 490, "state": "MAHARASHTRA", "state_lgd": 27, "shape_Area": 1228318016.2349851 }, "geometry": { "type": "Polygon", "coordinates": [ [ [ 74.2752932, 18.4415449 ], [ 74.2810153, 18.4433326 ], [ 74.2787323, 18.4397035 ], [ 74.2831499, 18.440164 ], [ 74.2811452, 18.436168 ], [ 74.282543, 18.4338646 ], [ 74.2866647, 18.431979 ], [ 74.2907433, 18.4334204 ], [ 74.293877, 18.4287871 ], [ 74.2963229, 18.4308612 ], [ 74.3015864, 18.4276606 ], [ 74.297385, 18.4081275 ], [ 74.2946085, 18.4090951 ], [ 74.2875778, 18.3993654 ], [ 74.2905074, 18.3956574 ], [ 74.2917945, 18.3979339 ], [ 74.2941454, 18.3964887 ], [ 74.2956716, 18.3988005 ], [ 74.2973954, 18.3987396 ], [ 74.2951143, 18.3971627 ], [ 74.2981306, 18.3920542 ], [ 74.2957667, 18.3930511 ], [ 74.2968007, 18.390912 ], [ 74.301392, 18.3905467 ], [ 74.3054786, 18.3846448 ], [ 74.3095496, 18.3551612 ], [ 74.3089296, 18.3434003 ], [ 74.3065674, 18.3377136 ], [ 74.3025096, 18.3357087 ], [ 74.2801386, 18.3335472 ], [ 74.2738372, 18.3226442 ], [ 74.2713481, 18.3043881 ], [ 74.2658872, 18.3034313 ], [ 74.2628753, 18.2699062 ], [ 74.2542, 18.2554043 ], [ 74.2414131, 18.2417513 ], [ 74.2474407, 18.2385948 ], [ 74.2458426, 18.2274561 ], [ 74.250363, 18.2204313 ], [ 74.245537, 18.2048119 ], [ 74.2436864, 18.2043287 ], [ 74.2482213, 18.194647 ], [ 74.245642, 18.1828996 ], [ 74.2530201, 18.1756435 ], [ 74.2432858, 18.1588188 ], [ 74.2461186, 18.157793 ], [ 74.2460319, 18.1547178 ], [ 74.2360846, 18.1452041 ], [ 74.236222, 18.1419133 ], [ 74.2212401, 18.1345708 ], [ 74.2095069, 18.1361029 ], [ 74.2119306, 18.1321583 ], [ 74.2209403, 18.1334593 ], [ 74.2155104, 18.0963287 ], [ 74.2101442, 18.0972494 ], [ 74.2043732, 18.1036842 ], [ 74.1959583, 18.1050556 ], [ 74.1851993, 18.1129066 ], [ 74.1649603, 18.1077283 ], [ 74.1575405, 18.1104281 ], [ 74.1473751, 18.1219393 ], [ 74.1374924, 18.1168331 ], [ 74.1179995, 18.1333209 ], [ 74.1008712, 18.123121 ], [ 74.0803362, 18.1208221 ], [ 74.0757201, 18.1224194 ], [ 74.0679743, 18.1366073 ], [ 74.0531185, 18.1416225 ], [ 74.0475044, 18.1398131 ], [ 74.0471309, 18.1471305 ], [ 74.0425607, 18.1517393 ], [ 74.0448589, 18.1624387 ], [ 74.0508183, 18.1691017 ], [ 74.045076, 18.1754639 ], [ 74.0435406, 18.1823211 ], [ 74.0302462, 18.1931504 ], [ 74.028266, 18.2003474 ], [ 74.0203968, 18.2056088 ], [ 74.0159067, 18.2056525 ], [ 74.0125874, 18.2111351 ], [ 73.9969555, 18.2167811 ], [ 73.9962375, 18.2198845 ], [ 73.9796236, 18.2294057 ], [ 73.9800457, 18.2335758 ], [ 73.9656232, 18.2435711 ], [ 73.9638061, 18.2528397 ], [ 73.9516377, 18.2479936 ], [ 73.9412125, 18.2340021 ], [ 73.9282795, 18.2347961 ], [ 73.9268464, 18.2376484 ], [ 73.9315941, 18.2443334 ], [ 73.9322002, 18.2511869 ], [ 73.9130212, 18.261888 ], [ 73.915181, 18.2701222 ], [ 73.9375603, 18.3051091 ], [ 73.9324542, 18.3123355 ], [ 73.9242294, 18.3166782 ], [ 73.9224359, 18.3241414 ], [ 73.9201864, 18.3230127 ], [ 73.9148176, 18.3258377 ], [ 73.9098539, 18.3226706 ], [ 73.9019544, 18.3253184 ], [ 73.8995243, 18.3293438 ], [ 73.889126, 18.3311536 ], [ 73.8820018, 18.3447151 ], [ 73.8832917, 18.3545588 ], [ 73.8807434, 18.3571165 ], [ 73.8802415, 18.3679147 ], [ 73.8844089, 18.3695716 ], [ 73.8896084, 18.3809573 ], [ 73.8858081, 18.3847009 ], [ 73.8891168, 18.3970509 ], [ 73.8852689, 18.40076 ], [ 73.8929552, 18.410652 ], [ 73.9140177, 18.4067483 ], [ 73.9192765, 18.4075209 ], [ 73.9239744, 18.4126233 ], [ 73.9391896, 18.4129507 ], [ 73.9483692, 18.4157502 ], [ 73.954396, 18.4143658 ], [ 73.9579647, 18.4100147 ], [ 73.9656104, 18.4067426 ], [ 73.9751891, 18.4060271 ], [ 73.9860366, 18.4103021 ], [ 74.0016865, 18.4120209 ], [ 74.0095216, 18.4259717 ], [ 74.0185979, 18.4303265 ], [ 74.0289922, 18.4242336 ], [ 74.0369313, 18.4237756 ], [ 74.0383682, 18.4175428 ], [ 74.0489696, 18.4124563 ], [ 74.0585668, 18.4134264 ], [ 74.0690848, 18.4108626 ], [ 74.0719836, 18.414885 ], [ 74.0882015, 18.4193179 ], [ 74.0954892, 18.4140445 ], [ 74.1188755, 18.4141303 ], [ 74.1328497, 18.4203011 ], [ 74.1402193, 18.4206808 ], [ 74.1442866, 18.4183451 ], [ 74.1534784, 18.4256016 ], [ 74.1713369, 18.4337563 ], [ 74.1870175, 18.4285566 ], [ 74.2029442, 18.4327307 ], [ 74.2145586, 18.4319382 ], [ 74.2412517, 18.4370891 ], [ 74.2450818, 18.4355135 ], [ 74.2461994, 18.4320625 ], [ 74.2491101, 18.4355471 ], [ 74.2514129, 18.4350422 ], [ 74.2534865, 18.4299154 ], [ 74.2558948, 18.435436 ], [ 74.2559348, 18.4325377 ], [ 74.261081, 18.4285046 ], [ 74.267533, 18.4442066 ], [ 74.2732092, 18.4443568 ], [ 74.2752932, 18.4415449 ] ] ] } },
{ "type": "Feature", "properties": { "OBJECTID": 2647, "block_name": "BARAMATI", "block_lgd": 4512, "district": "Pune", "dist_lgd": 490, "state": "MAHARASHTRA", "state_lgd": 27, "shape_Area": 1544108904.4884353 }, "geometry": { "type": "Polygon", "coordinates": [ [ [ 74.3473804, 18.3899123 ], [ 74.3603907, 18.3914799 ], [ 74.3662344, 18.38191 ], [ 74.36509, 18.3785515 ], [ 74.3701258, 18.3764208 ], [ 74.3673194, 18.3594825 ], [ 74.3744032, 18.3584968 ], [ 74.3769689, 18.3559566 ], [ 74.3881876, 18.3555485 ], [ 74.3923314, 18.3574998 ], [ 74.3942687, 18.3559977 ], [ 74.4023775, 18.363261 ], [ 74.411079, 18.3626012 ], [ 74.4247233, 18.3655685 ], [ 74.4315533, 18.3565894 ], [ 74.4417131, 18.3588469 ], [ 74.4423989, 18.3494917 ], [ 74.4520266, 18.3488274 ], [ 74.4535484, 18.3422336 ], [ 74.4716712, 18.3375602 ], [ 74.4725098, 18.329494 ], [ 74.494037, 18.3241131 ], [ 74.5132849, 18.3266375 ], [ 74.5244183, 18.3229764 ], [ 74.5377684, 18.3323351 ], [ 74.551439, 18.334456 ], [ 74.559424, 18.338316 ], [ 74.5626119, 18.3424444 ], [ 74.5723539, 18.3445958 ], [ 74.5745542, 18.3480012 ], [ 74.5831406, 18.3513845 ], [ 74.5849362, 18.3565657 ], [ 74.6082426, 18.345333 ], [ 74.6115475, 18.339375 ], [ 74.6227039, 18.3420872 ], [ 74.6222003, 18.3335112 ], [ 74.6249954, 18.3332706 ], [ 74.6251706, 18.3288186 ], [ 74.6233963, 18.3065288 ], [ 74.6531179, 18.3124629 ], [ 74.6705923, 18.307663 ], [ 74.6980465, 18.3109382 ], [ 74.7112252, 18.3072034 ], [ 74.7100166, 18.2743095 ], [ 74.6925663, 18.2773857 ], [ 74.6714521, 18.2732514 ], [ 74.6690688, 18.2633533 ], [ 74.6635181, 18.2591034 ], [ 74.6602763, 18.2492716 ], [ 74.6549991, 18.2165259 ], [ 74.6554173, 18.2049847 ], [ 74.6678495, 18.1915725 ], [ 74.6629451, 18.1813802 ], [ 74.6617064, 18.1651466 ], [ 74.671435, 18.1435597 ], [ 74.6780741, 18.1389292 ], [ 74.6785504, 18.1311348 ], [ 74.676402, 18.1281993 ], [ 74.681643, 18.1214972 ], [ 74.6833761, 18.1048538 ], [ 74.6665538, 18.0778381 ], [ 74.6662416, 18.072974 ], [ 74.6687302, 18.0716599 ], [ 74.6665188, 18.0693061 ], [ 74.6542451, 18.0682491 ], [ 74.6538073, 18.0588687 ], [ 74.6429054, 18.0449386 ], [ 74.638289, 18.0448371 ], [ 74.6358581, 18.05162 ], [ 74.6294928, 18.0569197 ], [ 74.619854, 18.0484166 ], [ 74.6102864, 18.0463997 ], [ 74.5904338, 18.0559585 ], [ 74.586376, 18.0531402 ], [ 74.5851603, 18.0462079 ], [ 74.5824853, 18.0460246 ], [ 74.57841, 18.0539584 ], [ 74.5694123, 18.0552109 ], [ 74.5626566, 18.0673127 ], [ 74.5577487, 18.070164 ], [ 74.5474076, 18.0683756 ], [ 74.5422631, 18.061885 ], [ 74.5335015, 18.0579232 ], [ 74.51582, 18.0609729 ], [ 74.5006081, 18.0601379 ], [ 74.4858758, 18.0559907 ], [ 74.4735809, 18.048662 ], [ 74.4598412, 18.0464123 ], [ 74.4362597, 18.064772 ], [ 74.4106409, 18.0706344 ], [ 74.4021586, 18.0702463 ], [ 74.395515, 18.0737227 ], [ 74.3838022, 18.0695628 ], [ 74.3724545, 18.0741272 ], [ 74.3685043, 18.0845544 ], [ 74.3600806, 18.0873069 ], [ 74.3590702, 18.0948944 ], [ 74.3562188, 18.0968413 ], [ 74.330643, 18.0872405 ], [ 74.3252549, 18.0834163 ], [ 74.3187843, 18.0725134 ], [ 74.3103423, 18.0720792 ], [ 74.3022877, 18.0672487 ], [ 74.2987138, 18.0681543 ], [ 74.2947279, 18.0740736 ], [ 74.2796353, 18.0747673 ], [ 74.2628259, 18.0810322 ], [ 74.2357872, 18.0995975 ], [ 74.2158668, 18.0969355 ], [ 74.2155372, 18.1058047 ], [ 74.2192965, 18.1144566 ], [ 74.2209403, 18.1334593 ], [ 74.2119306, 18.1321583 ], [ 74.2095069, 18.1361029 ], [ 74.2212401, 18.1345708 ], [ 74.236222, 18.1419133 ], [ 74.2360846, 18.1452041 ], [ 74.2460319, 18.1547178 ], [ 74.2461186, 18.157793 ], [ 74.2432858, 18.1588188 ], [ 74.2530201, 18.1756435 ], [ 74.245642, 18.1828996 ], [ 74.2482213, 18.194647 ], [ 74.2436864, 18.2043287 ], [ 74.245537, 18.2048119 ], [ 74.250363, 18.2204313 ], [ 74.2458426, 18.2274561 ], [ 74.2474407, 18.2385948 ], [ 74.2414131, 18.2417513 ], [ 74.2542, 18.2554043 ], [ 74.2628753, 18.2699062 ], [ 74.2658872, 18.3034313 ], [ 74.2713481, 18.3043881 ], [ 74.2738372, 18.3226442 ], [ 74.2801386, 18.3335472 ], [ 74.3065674, 18.3377136 ], [ 74.3095496, 18.3551612 ], [ 74.3066474, 18.3792934 ], [ 74.3138488, 18.3766614 ], [ 74.3267806, 18.3775504 ], [ 74.3328787, 18.3804051 ], [ 74.3360357, 18.3852325 ], [ 74.3456701, 18.384909 ], [ 74.3487669, 18.3887107 ], [ 74.3473804, 18.3899123 ] ] ] } },
{ "type": "Feature", "properties": { "OBJECTID": 2662, "block_name": "DAUND", "block_lgd": 4514, "district": "Pune", "dist_lgd": 490, "state": "MAHARASHTRA", "state_lgd": 27, "shape_Area": 1445427007.8753254 }, "geometry": { "type": "Polygon", "coordinates": [ [ [ 74.2803906, 18.6660514 ], [ 74.2784658, 18.6490563 ], [ 74.2666479, 18.6369135 ], [ 74.2647284, 18.6300152 ], [ 74.2709336, 18.6239203 ], [ 74.2783077, 18.6238825 ], [ 74.2943159, 18.6362712 ], [ 74.3088264, 18.6264395 ], [ 74.3097572, 18.6101836 ], [ 74.3215874, 18.5767402 ], [ 74.3407715, 18.5705499 ], [ 74.3436434, 18.5605803 ], [ 74.3502599, 18.5589124 ], [ 74.3733142, 18.5687618 ], [ 74.3856074, 18.5694963 ], [ 74.395255, 18.5754031 ], [ 74.4002406, 18.5753144 ], [ 74.4302062, 18.5589122 ], [ 74.4328158, 18.5546244 ], [ 74.4335309, 18.5441588 ], [ 74.4390248, 18.5324837 ], [ 74.4474472, 18.5336129 ], [ 74.4555237, 18.5265611 ], [ 74.4669989, 18.5226607 ], [ 74.4717212, 18.5225663 ], [ 74.4742768, 18.5250266 ], [ 74.4752673, 18.5405908 ], [ 74.4804614, 18.5430202 ], [ 74.4850744, 18.5422256 ], [ 74.4978204, 18.5313287 ], [ 74.5014496, 18.5206376 ], [ 74.5015075, 18.4997602 ], [ 74.5109736, 18.4931181 ], [ 74.5224293, 18.4982716 ], [ 74.5344133, 18.509487 ], [ 74.5425365, 18.5101775 ], [ 74.5483215, 18.5070963 ], [ 74.555573, 18.4952262 ], [ 74.5703491, 18.4849554 ], [ 74.5811399, 18.4725202 ], [ 74.6137174, 18.4681345 ], [ 74.6194687, 18.4655069 ], [ 74.6315213, 18.4538438 ], [ 74.6470262, 18.4501685 ], [ 74.6591921, 18.4573287 ], [ 74.671762, 18.4590666 ], [ 74.6746948, 18.4627761 ], [ 74.6722444, 18.4687672 ], [ 74.6629447, 18.468409 ], [ 74.6560416, 18.4733227 ], [ 74.6560563, 18.4825641 ], [ 74.6597745, 18.4900965 ], [ 74.6820195, 18.4965837 ], [ 74.6983835, 18.5060338 ], [ 74.7076217, 18.5042807 ], [ 74.7276756, 18.4821514 ], [ 74.7233487, 18.4484166 ], [ 74.7160871, 18.4320997 ], [ 74.7170556, 18.4226589 ], [ 74.7261864, 18.4141265 ], [ 74.7289813, 18.4037524 ], [ 74.7383834, 18.3972987 ], [ 74.7521936, 18.3965407 ], [ 74.7671741, 18.4066581 ], [ 74.7774688, 18.4099801 ], [ 74.7954188, 18.4002508 ], [ 74.7989554, 18.3927233 ], [ 74.8095811, 18.3836995 ], [ 74.8034423, 18.3740447 ], [ 74.7980571, 18.3533359 ], [ 74.8155857, 18.3417133 ], [ 74.8268558, 18.3444582 ], [ 74.8338036, 18.3416402 ], [ 74.8341328, 18.3205066 ], [ 74.8444171, 18.3082136 ], [ 74.8433711, 18.2996703 ], [ 74.8329301, 18.2953183 ], [ 74.8029766, 18.3021914 ], [ 74.8041831, 18.3244974 ], [ 74.7606575, 18.3298466 ], [ 74.7478027, 18.3029202 ], [ 74.7344249, 18.3054899 ], [ 74.7162434, 18.3052147 ], [ 74.6996386, 18.3108623 ], [ 74.6707695, 18.3076494 ], [ 74.6534758, 18.3124539 ], [ 74.6233963, 18.3065288 ], [ 74.6251706, 18.3288186 ], [ 74.6249954, 18.3332706 ], [ 74.6222003, 18.3335112 ], [ 74.6227039, 18.3420872 ], [ 74.6115475, 18.339375 ], [ 74.6082426, 18.345333 ], [ 74.5849362, 18.3565657 ], [ 74.5831406, 18.3513845 ], [ 74.5745542, 18.3480012 ], [ 74.5723539, 18.3445958 ], [ 74.5626119, 18.3424444 ], [ 74.559424, 18.338316 ], [ 74.551439, 18.334456 ], [ 74.5377684, 18.3323351 ], [ 74.5244183, 18.3229764 ], [ 74.5132849, 18.3266375 ], [ 74.5026882, 18.3267063 ], [ 74.4953689, 18.3238291 ], [ 74.4725098, 18.329494 ], [ 74.4716712, 18.3375602 ], [ 74.4535484, 18.3422336 ], [ 74.4520266, 18.3488274 ], [ 74.4423989, 18.3494917 ], [ 74.4417131, 18.3588469 ], [ 74.4315533, 18.3565894 ], [ 74.4247233, 18.3655685 ], [ 74.411079, 18.3626012 ], [ 74.4023775, 18.363261 ], [ 74.3942687, 18.3559977 ], [ 74.3923314, 18.3574998 ], [ 74.3881876, 18.3555485 ], [ 74.3769689, 18.3559566 ], [ 74.3744032, 18.3584968 ], [ 74.3673194, 18.3594825 ], [ 74.3701258, 18.3764208 ], [ 74.36509, 18.3785515 ], [ 74.3662344, 18.38191 ], [ 74.3602178, 18.3915735 ], [ 74.3477237, 18.3900741 ], [ 74.3456701, 18.384909 ], [ 74.3360357, 18.3852325 ], [ 74.3328787, 18.3804051 ], [ 74.3267806, 18.3775504 ], [ 74.3138488, 18.3766614 ], [ 74.3066474, 18.3792934 ], [ 74.301392, 18.3905467 ], [ 74.2974633, 18.3899462 ], [ 74.2961816, 18.3921079 ], [ 74.2981306, 18.3920542 ], [ 74.2951143, 18.3971627 ], [ 74.2973954, 18.3987396 ], [ 74.2956716, 18.3988005 ], [ 74.2941454, 18.3964887 ], [ 74.2917945, 18.3979339 ], [ 74.2905074, 18.3956574 ], [ 74.2875778, 18.3993654 ], [ 74.2946085, 18.4090951 ], [ 74.297385, 18.4081275 ], [ 74.3015864, 18.4276606 ], [ 74.2963229, 18.4308612 ], [ 74.293877, 18.4287871 ], [ 74.2907433, 18.4334204 ], [ 74.2866647, 18.431979 ], [ 74.282543, 18.4338646 ], [ 74.2811452, 18.436168 ], [ 74.2831499, 18.440164 ], [ 74.2787323, 18.4397035 ], [ 74.2810153, 18.4433326 ], [ 74.2788883, 18.4449792 ], [ 74.2752932, 18.4415449 ], [ 74.2732092, 18.4443568 ], [ 74.267533, 18.4442066 ], [ 74.261081, 18.4285046 ], [ 74.2559348, 18.4325377 ], [ 74.2558948, 18.435436 ], [ 74.2534865, 18.4299154 ], [ 74.2514129, 18.4350422 ], [ 74.2491101, 18.4355471 ], [ 74.2461994, 18.4320625 ], [ 74.2450818, 18.4355135 ], [ 74.2412517, 18.4370891 ], [ 74.2145586, 18.4319382 ], [ 74.2029442, 18.4327307 ], [ 74.1870175, 18.4285566 ], [ 74.1713369, 18.4337563 ], [ 74.1534784, 18.4256016 ], [ 74.1434834, 18.4182762 ], [ 74.141845, 18.4701007 ], [ 74.1503303, 18.4702131 ], [ 74.1550145, 18.484543 ], [ 74.1557122, 18.4951752 ], [ 74.1754946, 18.4930711 ], [ 74.1802697, 18.5114728 ], [ 74.1787166, 18.5172145 ], [ 74.1831963, 18.5294464 ], [ 74.1704074, 18.5370699 ], [ 74.1683995, 18.5796412 ], [ 74.1797359, 18.5833311 ], [ 74.1926342, 18.5939574 ], [ 74.1961585, 18.6152627 ], [ 74.2070671, 18.6160301 ], [ 74.2134551, 18.6217765 ], [ 74.2159959, 18.6288946 ], [ 74.2254764, 18.6324238 ], [ 74.2222759, 18.6440631 ], [ 74.2232522, 18.6479815 ], [ 74.2360714, 18.6495874 ], [ 74.2452878, 18.6630408 ], [ 74.2519642, 18.662097 ], [ 74.2559707, 18.6669485 ], [ 74.2671281, 18.6650778 ], [ 74.2759406, 18.6715254 ], [ 74.2803906, 18.6660514 ] ] ] } },
{ "type": "Feature", "properties": { "OBJECTID": 2730, "block_name": "SHIRUR", "block_lgd": 4523, "district": "Pune", "dist_lgd": 490, "state": "MAHARASHTRA", "state_lgd": 27, "shape_Area": 1739584344.7359331 }, "geometry": { "type": "Polygon", "coordinates": [ [ [ 74.1427189, 19.0265338 ], [ 74.1642094, 19.0109575 ], [ 74.1678905, 19.0036237 ], [ 74.1836492, 19.0082151 ], [ 74.1903039, 19.0160499 ], [ 74.1987211, 19.0148577 ], [ 74.2001894, 19.0054177 ], [ 74.2127309, 19.0087705 ], [ 74.2146506, 19.0018068 ], [ 74.210821, 18.9947541 ], [ 74.2159832, 18.9930786 ], [ 74.2216453, 18.9951873 ], [ 74.2256723, 18.9856479 ], [ 74.2208315, 18.9777916 ], [ 74.2207292, 18.9727057 ], [ 74.2299642, 18.9678331 ], [ 74.2368706, 18.9687871 ], [ 74.2354968, 18.9615025 ], [ 74.2390767, 18.9575096 ], [ 74.2360757, 18.9531049 ], [ 74.2461404, 18.9528387 ], [ 74.2491488, 18.9548731 ], [ 74.2533446, 18.9433705 ], [ 74.2604203, 18.9377882 ], [ 74.2708533, 18.9186855 ], [ 74.2807992, 18.914548 ], [ 74.2839559, 18.9069766 ], [ 74.2947585, 18.903512 ], [ 74.2934952, 18.8969593 ], [ 74.2955141, 18.8872767 ], [ 74.3016889, 18.879971 ], [ 74.3018764, 18.8731019 ], [ 74.308148, 18.868122 ], [ 74.3057459, 18.8645796 ], [ 74.3064026, 18.8552312 ], [ 74.3250524, 18.8382541 ], [ 74.3377643, 18.8360447 ], [ 74.3456309, 18.8455252 ], [ 74.3496299, 18.8453138 ], [ 74.3778769, 18.832069 ], [ 74.3825726, 18.8308579 ], [ 74.3891585, 18.8329394 ], [ 74.3972882, 18.8283485 ], [ 74.3986463, 18.8217867 ], [ 74.3936742, 18.8186503 ], [ 74.3911733, 18.8116996 ], [ 74.3843873, 18.8049483 ], [ 74.3888989, 18.790359 ], [ 74.388245, 18.7848227 ], [ 74.3934496, 18.7787746 ], [ 74.4004698, 18.775689 ], [ 74.3936296, 18.7675359 ], [ 74.398024, 18.7421548 ], [ 74.4095619, 18.7413709 ], [ 74.4186058, 18.7460533 ], [ 74.425144, 18.7466453 ], [ 74.4368745, 18.7380325 ], [ 74.4368514, 18.7351126 ], [ 74.4310219, 18.733504 ], [ 74.4379285, 18.7295423 ], [ 74.4375157, 18.7244831 ], [ 74.4430358, 18.7208768 ], [ 74.4488121, 18.7203962 ], [ 74.4676269, 18.7266733 ], [ 74.4734345, 18.7255433 ], [ 74.4787764, 18.7171181 ], [ 74.4814926, 18.7035938 ], [ 74.4739333, 18.6960131 ], [ 74.4759779, 18.6868704 ], [ 74.4867623, 18.6771098 ], [ 74.4944294, 18.6797252 ], [ 74.5035936, 18.6777633 ], [ 74.5096239, 18.6687951 ], [ 74.5090359, 18.6657817 ], [ 74.5010342, 18.6591526 ], [ 74.489778, 18.6559718 ], [ 74.4864064, 18.6471906 ], [ 74.476026, 18.6502375 ], [ 74.4726576, 18.6490022 ], [ 74.4713645, 18.6417312 ], [ 74.4815663, 18.630744 ], [ 74.5047178, 18.6240605 ], [ 74.5091019, 18.613422 ], [ 74.5186508, 18.6133409 ], [ 74.5371898, 18.6182152 ], [ 74.547623, 18.6136344 ], [ 74.5526736, 18.6084862 ], [ 74.5431328, 18.5995281 ], [ 74.5438779, 18.5926236 ], [ 74.5408628, 18.58226 ], [ 74.5530162, 18.5747286 ], [ 74.5658105, 18.5561563 ], [ 74.5752555, 18.5514523 ], [ 74.5775932, 18.5474161 ], [ 74.5748511, 18.5435836 ], [ 74.572054, 18.5456665 ], [ 74.5690308, 18.5445406 ], [ 74.5706513, 18.5392824 ], [ 74.5658381, 18.5247186 ], [ 74.5514673, 18.5142841 ], [ 74.5472656, 18.5076746 ], [ 74.5411986, 18.5105436 ], [ 74.5354725, 18.5100512 ], [ 74.5174528, 18.4949037 ], [ 74.5098964, 18.4935316 ], [ 74.5015075, 18.4997602 ], [ 74.5014496, 18.5206376 ], [ 74.4978204, 18.5313287 ], [ 74.4931898, 18.5367879 ], [ 74.483863, 18.542594 ], [ 74.4765485, 18.5416293 ], [ 74.4740147, 18.5375073 ], [ 74.4747081, 18.5261398 ], [ 74.4701762, 18.522417 ], [ 74.4555237, 18.5265611 ], [ 74.4474472, 18.5336129 ], [ 74.4390248, 18.5324837 ], [ 74.4335309, 18.5441588 ], [ 74.4328158, 18.5546244 ], [ 74.4302062, 18.5589122 ], [ 74.4002406, 18.5753144 ], [ 74.395255, 18.5754031 ], [ 74.3877725, 18.5700432 ], [ 74.3673197, 18.5667652 ], [ 74.3522664, 18.5589615 ], [ 74.3436434, 18.5605803 ], [ 74.3407715, 18.5705499 ], [ 74.3279672, 18.5735598 ], [ 74.3200478, 18.5784057 ], [ 74.3181026, 18.5903746 ], [ 74.3097572, 18.6101836 ], [ 74.3088264, 18.6264395 ], [ 74.2943159, 18.6362712 ], [ 74.2783077, 18.6238825 ], [ 74.2719224, 18.6235053 ], [ 74.2659626, 18.6279805 ], [ 74.2649401, 18.6342452 ], [ 74.2772888, 18.6468002 ], [ 74.2805559, 18.6567033 ], [ 74.2803906, 18.6660514 ], [ 74.2759406, 18.6715254 ], [ 74.2671281, 18.6650778 ], [ 74.2565961, 18.6669988 ], [ 74.2519642, 18.662097 ], [ 74.2457752, 18.6633882 ], [ 74.2367808, 18.6500656 ], [ 74.2232522, 18.6479815 ], [ 74.2224711, 18.64287 ], [ 74.2257819, 18.6329825 ], [ 74.2159959, 18.6288946 ], [ 74.2134551, 18.6217765 ], [ 74.2070671, 18.6160301 ], [ 74.1781029, 18.6173241 ], [ 74.1726204, 18.6215912 ], [ 74.1596475, 18.6140555 ], [ 74.1499964, 18.6014207 ], [ 74.1476731, 18.601249 ], [ 74.1012288, 18.6304679 ], [ 74.0898049, 18.6325427 ], [ 74.0802906, 18.6249086 ], [ 74.0752236, 18.6248471 ], [ 74.0695033, 18.6338336 ], [ 74.0544449, 18.6455113 ], [ 74.0467555, 18.6583547 ], [ 74.0356445, 18.6615835 ], [ 74.007495, 18.6631232 ], [ 73.9962417, 18.6715035 ], [ 74.0026793, 18.6791122 ], [ 73.9967317, 18.688038 ], [ 74.0004469, 18.6933219 ], [ 74.005753, 18.693611 ], [ 74.0176501, 18.6885089 ], [ 74.0212394, 18.6905178 ], [ 74.0249169, 18.6959792 ], [ 74.0342785, 18.7254003 ], [ 74.032854, 18.7394794 ], [ 74.0348161, 18.7488104 ], [ 74.0317441, 18.7483865 ], [ 74.0225856, 18.7586673 ], [ 74.0229295, 18.7608878 ], [ 74.009531, 18.7696876 ], [ 74.0106234, 18.774675 ], [ 73.9992157, 18.7910519 ], [ 74.0006732, 18.7967133 ], [ 73.9955986, 18.8011454 ], [ 74.0000818, 18.8062448 ], [ 74.015698, 18.8036732 ], [ 74.0197093, 18.8114996 ], [ 74.031837, 18.8116071 ], [ 74.0360458, 18.8318621 ], [ 74.0329201, 18.840952 ], [ 74.0216469, 18.8439352 ], [ 74.0234336, 18.8554583 ], [ 74.0316436, 18.8546118 ], [ 74.0422178, 18.8700927 ], [ 74.0444613, 18.8844509 ], [ 74.0567311, 18.878608 ], [ 74.062787, 18.8703039 ], [ 74.0768413, 18.8653906 ], [ 74.0790263, 18.860167 ], [ 74.0956452, 18.8524317 ], [ 74.0983482, 18.8474706 ], [ 74.1115021, 18.8477551 ], [ 74.1211029, 18.8568297 ], [ 74.1234059, 18.8551495 ], [ 74.1288235, 18.8616993 ], [ 74.1306756, 18.8686222 ], [ 74.128028, 18.8662691 ], [ 74.1239965, 18.8683668 ], [ 74.120057, 18.8764489 ], [ 74.1076768, 18.8851062 ], [ 74.1099209, 18.8930332 ], [ 74.1144735, 18.8979491 ], [ 74.1122696, 18.9067865 ], [ 74.113837, 18.9166558 ], [ 74.1184901, 18.9200304 ], [ 74.1379014, 18.9187046 ], [ 74.1393701, 18.9283059 ], [ 74.1490254, 18.9392483 ], [ 74.1665294, 18.9500238 ], [ 74.1648354, 18.9613241 ], [ 74.1605924, 18.9631004 ], [ 74.1525434, 18.9618277 ], [ 74.1491867, 18.9702377 ], [ 74.1483081, 18.9819768 ], [ 74.1404042, 18.992242 ], [ 74.1356879, 18.9918413 ], [ 74.1348432, 18.9839749 ], [ 74.1242114, 18.9776524 ], [ 74.1198627, 18.9815171 ], [ 74.1127139, 18.9799721 ], [ 74.1075193, 18.9857546 ], [ 74.1111392, 19.0122471 ], [ 74.11437, 19.0160662 ], [ 74.1127702, 19.0187818 ], [ 74.1400707, 19.0241321 ], [ 74.1427189, 19.0265338 ] ] ] } },
{ "type": "Feature", "properties": { "OBJECTID": 2688, "block_name": "KHED", "block_lgd": 4518, "district": "Pune", "dist_lgd": 490, "state": "MAHARASHTRA", "state_lgd": 27, "shape_Area": 1535398471.3228555 }, "geometry": { "type": "Polygon", "coordinates": [ [ [ 73.5849554, 19.0791455 ], [ 73.603961, 19.0768947 ], [ 73.610071, 19.0781283 ], [ 73.6231683, 19.0743429 ], [ 73.6279519, 19.075552 ], [ 73.6271043, 19.0665331 ], [ 73.6388243, 19.0632585 ], [ 73.6402312, 19.0609155 ], [ 73.6494828, 19.0610504 ], [ 73.6546907, 19.0729454 ], [ 73.6614969, 19.0716882 ], [ 73.6660379, 19.0739292 ], [ 73.6757999, 19.0738061 ], [ 73.6887988, 19.0633421 ], [ 73.6903501, 19.056278 ], [ 73.693989, 19.0527223 ], [ 73.7087466, 19.0491885 ], [ 73.7166212, 19.0498693 ], [ 73.7274626, 19.0419344 ], [ 73.7468394, 19.0403734 ], [ 73.7602437, 19.0340787 ], [ 73.7710631, 19.0261193 ], [ 73.7724421, 19.0146366 ], [ 73.7794859, 19.0157745 ], [ 73.782741, 19.0099694 ], [ 73.7855054, 19.0132141 ], [ 73.7899363, 19.0093204 ], [ 73.7943492, 19.0090818 ], [ 73.7924175, 18.9970967 ], [ 73.8024616, 19.0014873 ], [ 73.8062708, 19.0007469 ], [ 73.8078253, 18.9968076 ], [ 73.8045776, 18.9926294 ], [ 73.8072938, 18.9911566 ], [ 73.8170682, 18.9931963 ], [ 73.8209878, 18.9966476 ], [ 73.8302255, 18.9872107 ], [ 73.8415259, 18.9832314 ], [ 73.843985, 18.9710054 ], [ 73.8492408, 18.9695636 ], [ 73.8646173, 18.9559295 ], [ 73.8697435, 18.9588469 ], [ 73.8739198, 18.9569602 ], [ 73.8795045, 18.9502434 ], [ 73.8798492, 18.9417292 ], [ 73.8856827, 18.9457347 ], [ 73.8884692, 18.9408463 ], [ 73.8923976, 18.9445779 ], [ 73.8949531, 18.9425452 ], [ 73.8929366, 18.9399362 ], [ 73.8970413, 18.938033 ], [ 73.8932558, 18.9348943 ], [ 73.8974728, 18.9136711 ], [ 73.9088804, 18.9164939 ], [ 73.9235578, 18.9164724 ], [ 73.9282549, 18.9118772 ], [ 73.9360738, 18.909681 ], [ 73.9422692, 18.8928371 ], [ 73.9717351, 18.8908655 ], [ 73.979525, 18.901342 ], [ 73.9767042, 18.9081417 ], [ 73.978912, 18.9264305 ], [ 73.9831009, 18.9261989 ], [ 73.9881388, 18.9298387 ], [ 74.003266, 18.9279577 ], [ 74.0204824, 18.9213864 ], [ 74.0300869, 18.9132047 ], [ 74.031595, 18.9102486 ], [ 74.0295496, 18.8944465 ], [ 74.0456005, 18.8899069 ], [ 74.0422178, 18.8700927 ], [ 74.0316436, 18.8546118 ], [ 74.0234336, 18.8554583 ], [ 74.0211394, 18.8458558 ], [ 74.0223748, 18.8434727 ], [ 74.0299541, 18.8428303 ], [ 74.0339, 18.839715 ], [ 74.0360458, 18.8318621 ], [ 74.031837, 18.8116071 ], [ 74.0197093, 18.8114996 ], [ 74.015698, 18.8036732 ], [ 74.0000818, 18.8062448 ], [ 73.9955986, 18.8011454 ], [ 74.0006732, 18.7967133 ], [ 73.9992157, 18.7910519 ], [ 74.0106234, 18.774675 ], [ 74.009531, 18.7696876 ], [ 74.0229295, 18.7608878 ], [ 74.0225856, 18.7586673 ], [ 74.0317441, 18.7483865 ], [ 74.0348161, 18.7488104 ], [ 74.032854, 18.7394794 ], [ 74.0342785, 18.7254003 ], [ 74.0249169, 18.6959792 ], [ 74.0212394, 18.6905178 ], [ 74.0176501, 18.6885089 ], [ 74.005753, 18.693611 ], [ 74.0004469, 18.6933219 ], [ 73.9967317, 18.688038 ], [ 74.0026793, 18.6791122 ], [ 73.9962417, 18.6715035 ], [ 73.9923711, 18.6785128 ], [ 73.983889, 18.6789948 ], [ 73.984211, 18.6728591 ], [ 73.990413, 18.6635922 ], [ 73.9782462, 18.6549489 ], [ 73.9785903, 18.6508353 ], [ 73.9844904, 18.6430673 ], [ 73.9827688, 18.6326423 ], [ 73.9775739, 18.6245565 ], [ 73.96937, 18.6199705 ], [ 73.9637028, 18.621199 ], [ 73.9629716, 18.6247378 ], [ 73.9676503, 18.6326446 ], [ 73.9418864, 18.6458584 ], [ 73.9415647, 18.6577349 ], [ 73.9390633, 18.6613532 ], [ 73.9350067, 18.6614219 ], [ 73.925417, 18.6516877 ], [ 73.9202194, 18.6519673 ], [ 73.9015673, 18.6644547 ], [ 73.89572, 18.6771264 ], [ 73.8842161, 18.6780649 ], [ 73.8766663, 18.68566 ], [ 73.8685629, 18.6870803 ], [ 73.8610851, 18.6803102 ], [ 73.8499449, 18.6890037 ], [ 73.8416038, 18.687558 ], [ 73.8310057, 18.6904982 ], [ 73.8166021, 18.6868866 ], [ 73.8126973, 18.7033017 ], [ 73.808992, 18.7046325 ], [ 73.8031776, 18.7024481 ], [ 73.7992651, 18.7043506 ], [ 73.7881573, 18.7163371 ], [ 73.7839521, 18.7286345 ], [ 73.7717469, 18.73855 ], [ 73.7669269, 18.7363611 ], [ 73.7639229, 18.7189612 ], [ 73.7593873, 18.7179582 ], [ 73.7544202, 18.7214331 ], [ 73.7508198, 18.7201604 ], [ 73.7446697, 18.7100369 ], [ 73.7433869, 18.702151 ], [ 73.7383829, 18.7018558 ], [ 73.730786, 18.7070559 ], [ 73.7242489, 18.7066473 ], [ 73.7249373, 18.714402 ], [ 73.7326035, 18.7143525 ], [ 73.7334831, 18.7162971 ], [ 73.7349735, 18.7237943 ], [ 73.7373521, 18.7251109 ], [ 73.7393428, 18.7402925 ], [ 73.758443, 18.7378692 ], [ 73.7632988, 18.7381668 ], [ 73.7627728, 18.7407031 ], [ 73.7667006, 18.7366146 ], [ 73.7688476, 18.7519093 ], [ 73.7725761, 18.7594672 ], [ 73.765844, 18.7624426 ], [ 73.7676436, 18.7686779 ], [ 73.7608303, 18.771184 ], [ 73.7509223, 18.7724847 ], [ 73.7493066, 18.7698716 ], [ 73.7459472, 18.7699489 ], [ 73.7403574, 18.7623907 ], [ 73.7342462, 18.7697252 ], [ 73.7300068, 18.7713921 ], [ 73.742595, 18.8043671 ], [ 73.7345823, 18.8089491 ], [ 73.7264796, 18.8083955 ], [ 73.7180036, 18.8124037 ], [ 73.7109651, 18.8242514 ], [ 73.7036009, 18.8258823 ], [ 73.696601, 18.8226106 ], [ 73.6973213, 18.8266456 ], [ 73.6894454, 18.8291049 ], [ 73.6739045, 18.8285972 ], [ 73.6676229, 18.834767 ], [ 73.662694, 18.844406 ], [ 73.6631016, 18.8478357 ], [ 73.6655052, 18.8494283 ], [ 73.6686369, 18.8546911 ], [ 73.6687783, 18.8561439 ], [ 73.6608672, 18.8511974 ], [ 73.6519897, 18.8525294 ], [ 73.6463163, 18.861521 ], [ 73.6470564, 18.8672387 ], [ 73.6412131, 18.8719209 ], [ 73.6411544, 18.8765435 ], [ 73.6483127, 18.8839356 ], [ 73.6445591, 18.8838163 ], [ 73.6359386, 18.875887 ], [ 73.6147737, 18.8818576 ], [ 73.6132478, 18.8890215 ], [ 73.6008484, 18.8944862 ], [ 73.5903397, 18.9062776 ], [ 73.5826948, 18.9233553 ], [ 73.5709891, 18.9292745 ], [ 73.558764, 18.9419886 ], [ 73.5483993, 18.9464392 ], [ 73.5365761, 18.9581149 ], [ 73.5392101, 18.9616316 ], [ 73.5316091, 18.96708 ], [ 73.5281132, 18.9770513 ], [ 73.5219839, 18.979863 ], [ 73.524584, 18.9868208 ], [ 73.5336269, 18.9911857 ], [ 73.533825, 18.9957069 ], [ 73.5414682, 18.9961753 ], [ 73.5430142, 19.0016849 ], [ 73.5547776, 19.0098551 ], [ 73.5543298, 19.0127802 ], [ 73.5485421, 19.0107212 ], [ 73.5444696, 19.0150312 ], [ 73.5390167, 19.0157297 ], [ 73.5436768, 19.0238692 ], [ 73.5382657, 19.0291899 ], [ 73.5335479, 19.0297295 ], [ 73.5395294, 19.0483351 ], [ 73.5153096, 19.0459717 ], [ 73.5169012, 19.0578373 ], [ 73.5248882, 19.0548748 ], [ 73.521669, 19.0728063 ], [ 73.5402572, 19.072939 ], [ 73.5428789, 19.0631642 ], [ 73.5493851, 19.0599595 ], [ 73.5768224, 19.0583989 ], [ 73.5768843, 19.0715321 ], [ 73.5849554, 19.0791455 ] ] ] } },
{ "type": "Feature", "properties": { "OBJECTID": 2639, "block_name": "AMBEGAON", "block_lgd": 4511, "district": "Pune", "dist_lgd": 490, "state": "MAHARASHTRA", "state_lgd": 27, "shape_Area": 1173492219.1199954 }, "geometry": { "type": "Polygon", "coordinates": [ [ [ 73.6226336, 19.215141 ], [ 73.6297079, 19.2045484 ], [ 73.6402317, 19.2026643 ], [ 73.648101, 19.1983392 ], [ 73.6480333, 19.1953201 ], [ 73.65094, 19.1955483 ], [ 73.6518658, 19.1930685 ], [ 73.6564235, 19.1937427 ], [ 73.659052, 19.1872978 ], [ 73.6619303, 19.1910323 ], [ 73.6674257, 19.1923183 ], [ 73.6823532, 19.1883726 ], [ 73.6849142, 19.1844982 ], [ 73.6894249, 19.187838 ], [ 73.6992048, 19.1891179 ], [ 73.7047808, 19.1849235 ], [ 73.7070234, 19.182275 ], [ 73.7067932, 19.174373 ], [ 73.7022191, 19.171308 ], [ 73.6998585, 19.1617167 ], [ 73.7077284, 19.1560021 ], [ 73.7086061, 19.15036 ], [ 73.7115803, 19.1495728 ], [ 73.7134247, 19.1593073 ], [ 73.7224539, 19.1665053 ], [ 73.7239879, 19.1671018 ], [ 73.7246921, 19.1632229 ], [ 73.729284, 19.1632708 ], [ 73.7373923, 19.1708414 ], [ 73.7433888, 19.1699966 ], [ 73.7557165, 19.1549555 ], [ 73.7580524, 19.1603194 ], [ 73.7611298, 19.1598979 ], [ 73.7603228, 19.1559969 ], [ 73.7678876, 19.1574116 ], [ 73.7688749, 19.1545696 ], [ 73.772948, 19.1562683 ], [ 73.7731885, 19.1534151 ], [ 73.776424, 19.1560211 ], [ 73.7768038, 19.1532846 ], [ 73.7809251, 19.1547805 ], [ 73.7764805, 19.1477635 ], [ 73.7822073, 19.1423447 ], [ 73.7934384, 19.1418191 ], [ 73.7995512, 19.1312745 ], [ 73.8144583, 19.1263295 ], [ 73.8151726, 19.1239498 ], [ 73.8339956, 19.1210279 ], [ 73.8521286, 19.10927 ], [ 73.8611781, 19.1126125 ], [ 73.8666389, 19.1075023 ], [ 73.8837037, 19.1019457 ], [ 73.9002567, 19.1059982 ], [ 73.9027844, 19.1041383 ], [ 73.9237168, 19.1041966 ], [ 73.9298588, 19.1012559 ], [ 73.9366378, 19.1027762 ], [ 73.947138, 19.092979 ], [ 73.947705, 19.0888997 ], [ 73.9606633, 19.0902747 ], [ 73.9613735, 19.0878388 ], [ 73.9715831, 19.0830112 ], [ 73.9758007, 19.0748611 ], [ 73.9805637, 19.0763902 ], [ 73.9819681, 19.0810081 ], [ 73.9840642, 19.0801201 ], [ 73.989173, 19.0747394 ], [ 73.9962171, 19.0541982 ], [ 74.0021744, 19.0555957 ], [ 73.9998472, 19.0524197 ], [ 74.0063073, 19.0492991 ], [ 74.0227236, 19.0623027 ], [ 74.0546012, 19.0620883 ], [ 74.0612859, 19.0655297 ], [ 74.0647649, 19.0648493 ], [ 74.0763774, 19.0734124 ], [ 74.0798325, 19.0678798 ], [ 74.0981731, 19.0647547 ], [ 74.1043875, 19.0587867 ], [ 74.1036239, 19.0556628 ], [ 74.1073014, 19.0519876 ], [ 74.1062804, 19.0455374 ], [ 74.1152034, 19.0426215 ], [ 74.1402781, 19.0260818 ], [ 74.1400707, 19.0241321 ], [ 74.1127702, 19.0187818 ], [ 74.11437, 19.0160662 ], [ 74.1111392, 19.0122471 ], [ 74.1075193, 18.9857546 ], [ 74.1127139, 18.9799721 ], [ 74.1198627, 18.9815171 ], [ 74.1242114, 18.9776524 ], [ 74.1348432, 18.9839749 ], [ 74.1356879, 18.9918413 ], [ 74.1404042, 18.992242 ], [ 74.1483081, 18.9819768 ], [ 74.1491867, 18.9702377 ], [ 74.1525434, 18.9618277 ], [ 74.1605924, 18.9631004 ], [ 74.1648354, 18.9613241 ], [ 74.1665294, 18.9500238 ], [ 74.1490254, 18.9392483 ], [ 74.1393701, 18.9283059 ], [ 74.1381815, 18.9189144 ], [ 74.1184901, 18.9200304 ], [ 74.113285, 18.9153296 ], [ 74.1124459, 18.9030356 ], [ 74.1144735, 18.8979491 ], [ 74.1099209, 18.8930332 ], [ 74.1076768, 18.8851062 ], [ 74.120057, 18.8764489 ], [ 74.1239965, 18.8683668 ], [ 74.128028, 18.8662691 ], [ 74.1306756, 18.8686222 ], [ 74.1288235, 18.8616993 ], [ 74.1234059, 18.8551495 ], [ 74.1211029, 18.8568297 ], [ 74.1115021, 18.8477551 ], [ 74.0983482, 18.8474706 ], [ 74.0956452, 18.8524317 ], [ 74.0790263, 18.860167 ], [ 74.0768413, 18.8653906 ], [ 74.062787, 18.8703039 ], [ 74.0567311, 18.878608 ], [ 74.0449979, 18.8839484 ], [ 74.0456005, 18.8899069 ], [ 74.0295496, 18.8944465 ], [ 74.031595, 18.9102486 ], [ 74.0300869, 18.9132047 ], [ 74.0214545, 18.9208853 ], [ 74.003266, 18.9279577 ], [ 73.988926, 18.9299852 ], [ 73.9831009, 18.9261989 ], [ 73.978912, 18.9264305 ], [ 73.9767042, 18.9081417 ], [ 73.979525, 18.901342 ], [ 73.9708635, 18.8903955 ], [ 73.9422692, 18.8928371 ], [ 73.9360738, 18.909681 ], [ 73.9282549, 18.9118772 ], [ 73.9235578, 18.9164724 ], [ 73.9088804, 18.9164939 ], [ 73.8974728, 18.9136711 ], [ 73.8932558, 18.9348943 ], [ 73.8970413, 18.938033 ], [ 73.8929366, 18.9399362 ], [ 73.8949531, 18.9425452 ], [ 73.8923976, 18.9445779 ], [ 73.8884692, 18.9408463 ], [ 73.8856827, 18.9457347 ], [ 73.8798492, 18.9417292 ], [ 73.8795045, 18.9502434 ], [ 73.8739198, 18.9569602 ], [ 73.8697435, 18.9588469 ], [ 73.8646173, 18.9559295 ], [ 73.8492408, 18.9695636 ], [ 73.843985, 18.9710054 ], [ 73.8415259, 18.9832314 ], [ 73.8302255, 18.9872107 ], [ 73.8209878, 18.9966476 ], [ 73.8170682, 18.9931963 ], [ 73.8072938, 18.9911566 ], [ 73.8045776, 18.9926294 ], [ 73.8078253, 18.9968076 ], [ 73.8062708, 19.0007469 ], [ 73.8024616, 19.0014873 ], [ 73.7924175, 18.9970967 ], [ 73.7943492, 19.0090818 ], [ 73.7899363, 19.0093204 ], [ 73.7855054, 19.0132141 ], [ 73.782741, 19.0099694 ], [ 73.7794859, 19.0157745 ], [ 73.7724421, 19.0146366 ], [ 73.7710631, 19.0261193 ], [ 73.7602437, 19.0340787 ], [ 73.7468394, 19.0403734 ], [ 73.7274626, 19.0419344 ], [ 73.7166212, 19.0498693 ], [ 73.7087466, 19.0491885 ], [ 73.693989, 19.0527223 ], [ 73.6903501, 19.056278 ], [ 73.6887988, 19.0633421 ], [ 73.6761417, 19.0737016 ], [ 73.6546907, 19.0729454 ], [ 73.6494828, 19.0610504 ], [ 73.6402312, 19.0609155 ], [ 73.6388243, 19.0632585 ], [ 73.6271043, 19.0665331 ], [ 73.6279519, 19.075552 ], [ 73.6231683, 19.0743429 ], [ 73.5906327, 19.0800825 ], [ 73.58452, 19.07887 ], [ 73.5757823, 19.0699543 ], [ 73.5768224, 19.0583989 ], [ 73.5679937, 19.0599432 ], [ 73.5655694, 19.0578169 ], [ 73.5457963, 19.0610327 ], [ 73.5428495, 19.0632095 ], [ 73.5399654, 19.0730637 ], [ 73.521669, 19.0728063 ], [ 73.5281896, 19.085808 ], [ 73.5133479, 19.0848812 ], [ 73.5122406, 19.0961801 ], [ 73.5193153, 19.0996853 ], [ 73.5175874, 19.102917 ], [ 73.5246107, 19.1185762 ], [ 73.521933, 19.1220691 ], [ 73.5246815, 19.1289272 ], [ 73.542436, 19.1202555 ], [ 73.5425502, 19.1405386 ], [ 73.5341884, 19.1456435 ], [ 73.5328412, 19.1535498 ], [ 73.5400986, 19.1607431 ], [ 73.5425823, 19.1588275 ], [ 73.5377712, 19.1670646 ], [ 73.5365342, 19.178841 ], [ 73.5397863, 19.1762653 ], [ 73.5445074, 19.1771274 ], [ 73.5458291, 19.187093 ], [ 73.5561114, 19.1839333 ], [ 73.5602566, 19.1875343 ], [ 73.5661464, 19.1846013 ], [ 73.5669818, 19.1900606 ], [ 73.5758495, 19.1943652 ], [ 73.5838414, 19.1902846 ], [ 73.5888476, 19.1932612 ], [ 73.5932793, 19.1923261 ], [ 73.5969168, 19.1956597 ], [ 73.5991024, 19.1922538 ], [ 73.6014603, 19.1946186 ], [ 73.606374, 19.1904958 ], [ 73.6056848, 19.1949382 ], [ 73.608143, 19.193617 ], [ 73.6105325, 19.2019384 ], [ 73.6086534, 19.2106089 ], [ 73.6226336, 19.215141 ] ] ] } },
{ "type": "Feature", "properties": { "OBJECTID": 2683, "block_name": "JUNNAR", "block_lgd": 4517, "district": "Pune", "dist_lgd": 490, "state": "MAHARASHTRA", "state_lgd": 27, "shape_Area": 1561057383.7715549 }, "geometry": { "type": "Polygon", "coordinates": [ [ [ 73.8077934, 19.3929381 ], [ 73.8124736, 19.3879148 ], [ 73.8211521, 19.3867489 ], [ 73.8256849, 19.3815765 ], [ 73.8377236, 19.3760377 ], [ 73.8429818, 19.3710987 ], [ 73.8407645, 19.3663141 ], [ 73.8534773, 19.3555516 ], [ 73.8664494, 19.3551701 ], [ 73.8739677, 19.3586817 ], [ 73.8854967, 19.3736208 ], [ 73.8941589, 19.3705057 ], [ 73.9037967, 19.3621981 ], [ 73.91281, 19.36237 ], [ 73.9189944, 19.3549271 ], [ 73.9199645, 19.3490799 ], [ 73.9239811, 19.3457738 ], [ 73.9268673, 19.3387126 ], [ 73.9332039, 19.3412351 ], [ 73.9376576, 19.3389993 ], [ 73.9382119, 19.3429956 ], [ 73.9418493, 19.3421479 ], [ 73.9435133, 19.3445374 ], [ 73.9450324, 19.3397003 ], [ 73.9468335, 19.3426887 ], [ 73.9499115, 19.3400092 ], [ 73.9550915, 19.3417347 ], [ 73.9535307, 19.3475274 ], [ 73.9659774, 19.3503428 ], [ 73.9690695, 19.3540386 ], [ 73.9714261, 19.3531721 ], [ 73.9723544, 19.3489786 ], [ 73.9950382, 19.3524315 ], [ 73.9994188, 19.3594371 ], [ 74.0017339, 19.3414038 ], [ 74.0115257, 19.335302 ], [ 74.0121264, 19.3290958 ], [ 74.0193096, 19.321469 ], [ 74.0177062, 19.3152332 ], [ 74.0238382, 19.3148374 ], [ 74.02528, 19.312009 ], [ 74.0241876, 19.309474 ], [ 74.0196702, 19.3097119 ], [ 74.0250947, 19.2989264 ], [ 74.0223989, 19.3002362 ], [ 74.0187757, 19.2955953 ], [ 74.0152823, 19.299644 ], [ 74.0117056, 19.2995778 ], [ 74.0091236, 19.305655 ], [ 74.0055766, 19.3051411 ], [ 74.0081713, 19.2982332 ], [ 74.0056475, 19.2935967 ], [ 74.0159305, 19.2939463 ], [ 74.0196083, 19.2837675 ], [ 74.0234791, 19.2886518 ], [ 74.0298199, 19.2829076 ], [ 74.0298063, 19.2779698 ], [ 74.0258433, 19.2744908 ], [ 74.0268424, 19.2708138 ], [ 74.0230557, 19.2667174 ], [ 74.0278712, 19.2646671 ], [ 74.0328179, 19.2581786 ], [ 74.0308372, 19.249734 ], [ 74.044948, 19.2619231 ], [ 74.0496391, 19.2435533 ], [ 74.0540363, 19.2415786 ], [ 74.0602722, 19.2458626 ], [ 74.0715149, 19.2354496 ], [ 74.0772241, 19.2359012 ], [ 74.0892578, 19.2282088 ], [ 74.0930913, 19.2279589 ], [ 74.085151, 19.2328652 ], [ 74.0837222, 19.2390691 ], [ 74.0973667, 19.2322985 ], [ 74.1004662, 19.2335127 ], [ 74.1004946, 19.2308928 ], [ 74.1057227, 19.2306859 ], [ 74.1138404, 19.2260908 ], [ 74.1154739, 19.2299276 ], [ 74.117217, 19.2262818 ], [ 74.1259867, 19.222388 ], [ 74.1512964, 19.2257296 ], [ 74.1519203, 19.2216925 ], [ 74.1551974, 19.220348 ], [ 74.1532356, 19.2197148 ], [ 74.1571201, 19.2042293 ], [ 74.1652075, 19.2080659 ], [ 74.1637252, 19.2150821 ], [ 74.1684745, 19.2241504 ], [ 74.1785529, 19.2198464 ], [ 74.1887365, 19.2095377 ], [ 74.2117748, 19.2061416 ], [ 74.2198614, 19.2028652 ], [ 74.230458, 19.2052737 ], [ 74.2329955, 19.2106382 ], [ 74.2436917, 19.2140326 ], [ 74.2468543, 19.2192859 ], [ 74.2501924, 19.2186444 ], [ 74.2515881, 19.2211052 ], [ 74.2564973, 19.219865 ], [ 74.2615847, 19.2240651 ], [ 74.2603487, 19.2264632 ], [ 74.2736883, 19.21944 ], [ 74.2928364, 19.2176962 ], [ 74.316163, 19.2078371 ], [ 74.3097961, 19.2046204 ], [ 74.3086275, 19.1984516 ], [ 74.3062382, 19.1981005 ], [ 74.2998638, 19.189026 ], [ 74.2943933, 19.189515 ], [ 74.2947738, 19.1864732 ], [ 74.2826673, 19.1875899 ], [ 74.273614, 19.1857628 ], [ 74.2643879, 19.1794178 ], [ 74.2671473, 19.1765395 ], [ 74.2636822, 19.1697956 ], [ 74.2668412, 19.1630952 ], [ 74.2579421, 19.1587631 ], [ 74.2563416, 19.1520604 ], [ 74.2439562, 19.1444915 ], [ 74.2349447, 19.1279073 ], [ 74.2346661, 19.1227413 ], [ 74.2282013, 19.1220696 ], [ 74.2256189, 19.1295549 ], [ 74.2115945, 19.1287818 ], [ 74.1968232, 19.1007413 ], [ 74.2021639, 19.0889738 ], [ 74.1912529, 19.0787205 ], [ 74.1911433, 19.0598211 ], [ 74.1877795, 19.0596455 ], [ 74.1864043, 19.0554929 ], [ 74.172192, 19.0410347 ], [ 74.1764552, 19.0343583 ], [ 74.1739409, 19.0314268 ], [ 74.178398, 19.0267673 ], [ 74.1880542, 19.0239268 ], [ 74.1896316, 19.015705 ], [ 74.1836492, 19.0082151 ], [ 74.16847, 19.003611 ], [ 74.1642094, 19.0109575 ], [ 74.1463038, 19.0254163 ], [ 74.1348804, 19.0281139 ], [ 74.1152034, 19.0426215 ], [ 74.1062804, 19.0455374 ], [ 74.1073014, 19.0519876 ], [ 74.1036239, 19.0556628 ], [ 74.1043875, 19.0587867 ], [ 74.0981731, 19.0647547 ], [ 74.0798325, 19.0678798 ], [ 74.0763774, 19.0734124 ], [ 74.0647649, 19.0648493 ], [ 74.0612859, 19.0655297 ], [ 74.0546012, 19.0620883 ], [ 74.0227236, 19.0623027 ], [ 74.0063073, 19.0492991 ], [ 73.9998472, 19.0524197 ], [ 74.0021744, 19.0555957 ], [ 73.9962171, 19.0541982 ], [ 73.989173, 19.0747394 ], [ 73.9840642, 19.0801201 ], [ 73.9819681, 19.0810081 ], [ 73.9805637, 19.0763902 ], [ 73.9758007, 19.0748611 ], [ 73.9715831, 19.0830112 ], [ 73.9613735, 19.0878388 ], [ 73.9606633, 19.0902747 ], [ 73.947705, 19.0888997 ], [ 73.947138, 19.092979 ], [ 73.9366378, 19.1027762 ], [ 73.9298588, 19.1012559 ], [ 73.9237168, 19.1041966 ], [ 73.9027844, 19.1041383 ], [ 73.9002567, 19.1059982 ], [ 73.8837037, 19.1019457 ], [ 73.8666389, 19.1075023 ], [ 73.8611781, 19.1126125 ], [ 73.8521286, 19.10927 ], [ 73.8339956, 19.1210279 ], [ 73.8151726, 19.1239498 ], [ 73.8144583, 19.1263295 ], [ 73.7995512, 19.1312745 ], [ 73.7934384, 19.1418191 ], [ 73.7822073, 19.1423447 ], [ 73.7764805, 19.1477635 ], [ 73.7809251, 19.1547805 ], [ 73.7768038, 19.1532846 ], [ 73.776424, 19.1560211 ], [ 73.7731885, 19.1534151 ], [ 73.772948, 19.1562683 ], [ 73.7688749, 19.1545696 ], [ 73.7678876, 19.1574116 ], [ 73.7603228, 19.1559969 ], [ 73.7611298, 19.1598979 ], [ 73.7580524, 19.1603194 ], [ 73.7557165, 19.1549555 ], [ 73.7433888, 19.1699966 ], [ 73.7373923, 19.1708414 ], [ 73.729284, 19.1632708 ], [ 73.7246921, 19.1632229 ], [ 73.7239879, 19.1671018 ], [ 73.7224539, 19.1665053 ], [ 73.7134247, 19.1593073 ], [ 73.7115803, 19.1495728 ], [ 73.7086061, 19.15036 ], [ 73.7077284, 19.1560021 ], [ 73.6998585, 19.1617167 ], [ 73.7022191, 19.171308 ], [ 73.7067932, 19.174373 ], [ 73.7070234, 19.182275 ], [ 73.6992048, 19.1891179 ], [ 73.6894249, 19.187838 ], [ 73.6854546, 19.1844148 ], [ 73.6823532, 19.1883726 ], [ 73.6674257, 19.1923183 ], [ 73.6619303, 19.1910323 ], [ 73.659052, 19.1872978 ], [ 73.6564235, 19.1937427 ], [ 73.6518658, 19.1930685 ], [ 73.65094, 19.1955483 ], [ 73.6480333, 19.1953201 ], [ 73.648101, 19.1983392 ], [ 73.6402317, 19.2026643 ], [ 73.6296935, 19.2045843 ], [ 73.635151, 19.2092628 ], [ 73.6366176, 19.2145306 ], [ 73.6447237, 19.21989 ], [ 73.6583424, 19.2393349 ], [ 73.6626669, 19.2420737 ], [ 73.6720588, 19.2394663 ], [ 73.6853928, 19.2423224 ], [ 73.6939898, 19.2528 ], [ 73.6950121, 19.2581823 ], [ 73.6901736, 19.2686851 ], [ 73.6872322, 19.2724418 ], [ 73.6805217, 19.2738858 ], [ 73.6734803, 19.2902442 ], [ 73.6674733, 19.2914306 ], [ 73.6729335, 19.3011074 ], [ 73.6692645, 19.3051674 ], [ 73.6816712, 19.3074718 ], [ 73.6825994, 19.3116585 ], [ 73.6868626, 19.3151314 ], [ 73.7013439, 19.3145803 ], [ 73.7018633, 19.3127025 ], [ 73.7094205, 19.3249078 ], [ 73.7468667, 19.3372338 ], [ 73.7433963, 19.324232 ], [ 73.7460435, 19.3242184 ], [ 73.747157, 19.3181477 ], [ 73.7489574, 19.3183702 ], [ 73.7478681, 19.3219402 ], [ 73.7504531, 19.3274048 ], [ 73.7583719, 19.3311463 ], [ 73.7611482, 19.3275168 ], [ 73.7701539, 19.3315541 ], [ 73.7726332, 19.3379285 ], [ 73.7717081, 19.3423756 ], [ 73.7790647, 19.335857 ], [ 73.7816894, 19.3349662 ], [ 73.7874597, 19.3382045 ], [ 73.7932511, 19.3337871 ], [ 73.7947443, 19.3427406 ], [ 73.7779819, 19.3872419 ], [ 73.8009237, 19.3951243 ], [ 73.8077934, 19.3929381 ] ] ] } },
{ "type": "Feature", "properties": { "OBJECTID": 2678, "block_name": "INDAPUR", "block_lgd": 4516, "district": "Pune", "dist_lgd": 490, "state": "MAHARASHTRA", "state_lgd": 27, "shape_Area": 1638923996.3279192 }, "geometry": { "type": "Polygon", "coordinates": [ [ [ 74.7671462, 18.3294274 ], [ 74.8041831, 18.3244974 ], [ 74.8029605, 18.3022667 ], [ 74.7965797, 18.2957611 ], [ 74.7964644, 18.2810945 ], [ 74.8058344, 18.2728983 ], [ 74.8170334, 18.2678827 ], [ 74.8300409, 18.2515928 ], [ 74.8391728, 18.2458182 ], [ 74.8764155, 18.2491896 ], [ 74.8921042, 18.2594883 ], [ 74.9252336, 18.2598643 ], [ 74.9487678, 18.2664605 ], [ 74.9631011, 18.2516525 ], [ 74.991371, 18.2405711 ], [ 75.0360372, 18.2615628 ], [ 75.0418219, 18.2623411 ], [ 75.0440725, 18.2542051 ], [ 75.023549, 18.2360526 ], [ 75.0131597, 18.2209207 ], [ 75.0084304, 18.2093252 ], [ 75.0183387, 18.1924754 ], [ 75.0231696, 18.1896303 ], [ 75.0380038, 18.196303 ], [ 75.0580882, 18.1995765 ], [ 75.0825149, 18.2184132 ], [ 75.0957431, 18.221012 ], [ 75.1061142, 18.2199944 ], [ 75.1119308, 18.2050347 ], [ 75.1103372, 18.1870466 ], [ 75.1007437, 18.1634243 ], [ 75.0918827, 18.1489094 ], [ 75.0921563, 18.1228158 ], [ 75.0958418, 18.1186446 ], [ 75.1103063, 18.1172744 ], [ 75.1207597, 18.1172603 ], [ 75.1384659, 18.1219205 ], [ 75.1520526, 18.1219189 ], [ 75.1609236, 18.1172905 ], [ 75.1623626, 18.1085381 ], [ 75.1557476, 18.1016428 ], [ 75.1416595, 18.0975062 ], [ 75.1358242, 18.0927415 ], [ 75.1316277, 18.0873547 ], [ 75.1287263, 18.0745722 ], [ 75.1132995, 18.0748276 ], [ 75.0947253, 18.0696306 ], [ 75.0853945, 18.0569896 ], [ 75.0841049, 18.045524 ], [ 75.0806237, 18.039091 ], [ 75.051586, 18.0241582 ], [ 75.0468758, 18.012724 ], [ 75.0277659, 17.9894913 ], [ 75.0201415, 17.966695 ], [ 75.0384694, 17.9497543 ], [ 75.0531256, 17.9521038 ], [ 75.0633775, 17.9643326 ], [ 75.0689459, 17.9796132 ], [ 75.0809381, 17.9821429 ], [ 75.1003591, 17.9760579 ], [ 75.1052804, 17.9828073 ], [ 75.1086361, 17.9989488 ], [ 75.1117068, 18.0012811 ], [ 75.1188216, 18.0010737 ], [ 75.1247392, 17.9961642 ], [ 75.1291405, 17.9786387 ], [ 75.1327559, 17.972925 ], [ 75.1360599, 17.9718992 ], [ 75.1309386, 17.9705316 ], [ 75.1197451, 17.9735093 ], [ 75.1160482, 17.9709764 ], [ 75.1170231, 17.9651776 ], [ 75.1278139, 17.9614965 ], [ 75.1295504, 17.9564484 ], [ 75.1261425, 17.9515894 ], [ 75.1167163, 17.947094 ], [ 75.1120555, 17.9384069 ], [ 75.1069689, 17.9377997 ], [ 75.0961123, 17.9466239 ], [ 75.0819225, 17.9408119 ], [ 75.0801458, 17.9356477 ], [ 75.0878581, 17.9268556 ], [ 75.0826436, 17.9214073 ], [ 75.0739799, 17.9173025 ], [ 75.0671714, 17.9187808 ], [ 75.0559378, 17.9280295 ], [ 75.0510013, 17.9272665 ], [ 75.046121, 17.923319 ], [ 75.0450069, 17.9190849 ], [ 75.0541052, 17.9050405 ], [ 75.0506498, 17.9035628 ], [ 75.0385969, 17.9061256 ], [ 75.0275867, 17.8958329 ], [ 75.024033, 17.8950371 ], [ 75.0201967, 17.8973402 ], [ 75.018992, 17.9089901 ], [ 74.9830455, 17.9179848 ], [ 74.9634989, 17.9173624 ], [ 74.95257, 17.9233098 ], [ 74.9412023, 17.9242618 ], [ 74.9428347, 17.936718 ], [ 74.9371045, 17.9415739 ], [ 74.9269462, 17.9412374 ], [ 74.9128757, 17.9454903 ], [ 74.9029391, 17.943662 ], [ 74.8937981, 17.9364983 ], [ 74.8836415, 17.9422996 ], [ 74.8735042, 17.9432169 ], [ 74.8712421, 17.9501226 ], [ 74.865778, 17.9523963 ], [ 74.8543474, 17.9463743 ], [ 74.8458763, 17.9458508 ], [ 74.8431179, 17.9525201 ], [ 74.8503215, 17.963383 ], [ 74.8585193, 17.9702468 ], [ 74.8620873, 17.992538 ], [ 74.8450753, 17.9965837 ], [ 74.836052, 17.992086 ], [ 74.8322369, 17.9931772 ], [ 74.829202, 17.9958812 ], [ 74.8230601, 18.011717 ], [ 74.8188293, 18.015104 ], [ 74.8160544, 18.0149943 ], [ 74.8117248, 18.0096723 ], [ 74.8124503, 18.0002863 ], [ 74.8026239, 17.9966641 ], [ 74.7903144, 18.0084065 ], [ 74.7742032, 18.0107614 ], [ 74.7730834, 18.0175171 ], [ 74.7681023, 18.0233181 ], [ 74.7621112, 18.0232793 ], [ 74.7518142, 18.0168732 ], [ 74.7471082, 18.0164745 ], [ 74.741887, 18.0267332 ], [ 74.7327043, 18.0270509 ], [ 74.7241431, 18.0310903 ], [ 74.7141231, 18.0283378 ], [ 74.7071661, 18.0311343 ], [ 74.7019943, 18.0381283 ], [ 74.690943, 18.0388108 ], [ 74.6864612, 18.0481853 ], [ 74.6848832, 18.0593183 ], [ 74.6734167, 18.0621117 ], [ 74.6665331, 18.0689241 ], [ 74.6665841, 18.0713878 ], [ 74.6687302, 18.0716599 ], [ 74.6662416, 18.072974 ], [ 74.6665538, 18.0778381 ], [ 74.6833546, 18.1046959 ], [ 74.6833542, 18.1139225 ], [ 74.6811148, 18.1151923 ], [ 74.681643, 18.1214972 ], [ 74.676402, 18.1281993 ], [ 74.6785504, 18.1311348 ], [ 74.6780741, 18.1389292 ], [ 74.671435, 18.1435597 ], [ 74.6617064, 18.1651466 ], [ 74.6629451, 18.1813802 ], [ 74.6678495, 18.1915725 ], [ 74.6554173, 18.2049847 ], [ 74.6549991, 18.2165259 ], [ 74.6602763, 18.2492716 ], [ 74.6635181, 18.2591034 ], [ 74.6690688, 18.2633533 ], [ 74.6714521, 18.2732514 ], [ 74.6925663, 18.2773857 ], [ 74.7100166, 18.2743095 ], [ 74.7112252, 18.3072034 ], [ 74.7478027, 18.3029202 ], [ 74.7585735, 18.3282777 ], [ 74.7671462, 18.3294274 ] ] ] } }
]
}
